Category,Name,Ownership: Government/Private,Street Address,City,State,Zip,County,Phone Number,Website,Hours- Sunday,Hours - Monday,Hours - Tuesday,Hours - Wednesday,Hours - Thursday,Hours - Friday,Hours - Saturday,Residential Household Garbage,Residential Electronic Waste,Residential Appliances/ Furniture,Residential Brush,Residential Construction,Demolition Waste,Recycling - Residential Metal,Recycling - Residential Cans,Recycling - Residential Aluminum,Recycling - Residential Plastics (#1 & #2 only),Recycling - Residential Glass,Recycling - Residential Paper,Recycling - Residential Cardboard,Recycling - Residential Used Motor Oil,Recycling - Residential Used Cooking Oil,Special Waste - Residential automotive batteries,Special Waste - Residential latex-based paint,Special Waste - Residential antifreeze,Special Waste - Residential Automotive Tires,Holiday Hours - New Year's Day,Holiday Hours - MLK Day,Holiday Hours - President's Day,Holiday Hours - Easter,Holiday Hours - Memorial Day,Holiday Hours - Independence Day,Holiday Hours - Veteran's Day,Holiday Hours - Thanksgiving Day,Holiday Hours - Christmas Eve,Holiday Hours - Christmas Day,Goodwill Drop-Off,Daily Limit,Notes
Landfill,Baker Sanitary Landfill,Private,Se Of Baker City,Baker City,OR,97907,Baker,541-523-2626,http://www.bakersanitary.com/,No,8:00AM-4:00PM,8:00AM-4:00PM,8:00AM-4:00PM,8:00AM-4:00PM,8:00AM-4:00PM,No,Yes,No,No,No,Yes,Yes,No,No,No,No,No,No,No,Yes,Yes,No,No,No,Yes,,,,,,,,,,,,,
Landfill,Haines Landfill,Government,"Sec 27, T7S, R39E",Haines,OR,97833,Baker,541-856-3366,https://www.cityofhainesor.org/,,,,,,,,Yes,No,No,Yes,Yes,Yes,No,No,No,No,No,No,No,No,No,No,No,No,No,,,,,,,,,,,,,
Transfer Station,Huntington Transfer Station,Government,"Approx. 1 Mile East On Hwy 30, Then Sout",Huntington,OR,97907,Baker,541-869-2202,,,,,,,,,Yes,No,No,Yes,Yes,Yes,No,No,No,No,No,No,No,No,No,No,No,No,No,,,,,,,,,,,,,
Transfer Station,Larue Transfer Station,Government,43401 Sag Rd ,Halfway,OR,97834,Baker,541-742-6857,,,,,,,,,Yes,No,No,No,Yes,Yes,No,No,No,No,No,No,No,No,No,No,No,No,No,,,,,,,,,,,,,
Transfer Station,UnityTransfer Station,Government,1 1/2 - 2 Mi. South Of Unity,Unity,OR,97884,Baker,541-446-3544,,,,,,,,,,,,,,,,,,,,,,,,,,,,,,,,,,,,,,,,
Waste Tire Facility,"Second Life Recycling, LLC",Private,33060 Shirttail Creek Road,Durkee,OR,97905,Baker,208-850-6870,,,,,,,,,No,No,No,No,No,No,No,No,No,No,No,No,No,No,No,No,No,No,Yes,,,,,,,,,,,,,
Waste Tire Facility,Ash Grove Cement Plant,Private,300 Cement Plant Road,Durkee,OR,97905,Baker,541-877-2411,https://www.ashgrove.com/,,,,,,,,No,No,No,No,No,No,No,No,No,No,No,No,No,No,No,No,No,No,Yes,,,,,,,,,,,,,
Compost Facility,Processing & Recovery Center,Private,29969 Camp Adair Rd,Monmouth,OR,97361,Benton,541-745-5792,,,,,,,,,No,No,No,Yes,No,No,No,No,No,No,No,No,No,No,No,No,No,No,No,,,,,,,,,,,,,
Compost Facility,SIF Biogas Plant,Private,3122 Stahlbush Island Rd,Corvallis,OR,97333,Benton,541-760-3127,,,,,,,,,No,No,No,Yes,No,No,No,No,No,No,No,No,No,No,No,No,No,No,No,,,,,,,,,,,,,
Compost Facility,"Gathering Together Farm, Inc",Private,25159 Grange Hall Road,Philomath,OR,97370,Benton,541-929-4270,http://www.gatheringtogetherfarm.com/,,,,,,,,No,No,No,Yes,No,No,No,No,No,No,No,No,No,No,No,No,No,No,No,,,,,,,,,,,,,
Landfill,Coffin Butte Landfill,Private,29175 Coffin Butte Rd,Corvallis,OR,97330,Benton,541-230-5546,https://www.republicservices.com/customer-support/facilities?utm_source=yext.com&utm_medium=referral&utm_campaign=Yext_Profile_Click_Google&utm_term=F32,,,,,,,,,,,,,,,,,,,,,,,,,,,,,,,,,,,,,,,
Compost Facility,"McFarlane's Bark, Inc.",Private,13345 Se Johnson Rd,Milwaukie,OR,97222,Clackamas,503-659-4240,http://www.mcfarlanesbark.com/,9:00AM-4:00PM,8:00AM-5:00PM,8:00AM-5:00PM,8:00AM-5:00PM,8:00AM-5:00PM,8:00AM-5:00PM,8:00AM-5:00PM,No,No,No,Yes,No,No,No,No,No,No,No,No,No,No,No,No,No,No,No,,,,,,,,,,,,,
Compost Facility,Canby Landscape Supply,Private,24370 S Highway 99E,Canby,OR,97013,Clackamas,503-656-0663,http://www.canbylandscapesupply.com/,No,7:00AM-4:30PM,7:00AM-4:30PM,7:00AM-4:30PM,7:00AM-4:30PM,7:00AM-4:30PM,9:00AM-3:00PM,No,No,No,Yes,No,No,No,No,No,No,No,No,No,No,No,No,No,No,No,,,,,,,,,,,,,
Compost Facility,Aurora Compost 1,Government,6822 S Anderson Rd,Aurora,OR,97002,Clackamas,503-969-9548,,,,,,,,,No,No,No,Yes,No,No,No,No,No,No,No,No,No,No,No,No,No,No,No,,,,,,,,,,,,,
Compost Facility,Aurora Compost 2,Government,5997 S Anderson Rd,Aurora,OR,97002,Clackamas,503-692-9666,,,,,,,,,No,No,No,Yes,No,No,No,No,No,No,No,No,No,No,No,No,No,No,No,,,,,,,,,,,,,
Compost Facility,Aurora Compost 3,Government,26241 S Meridian Rd,Aurora,OR,97002,Clackamas,503-710-6136,,,,,,,,,No,No,No,Yes,No,No,No,No,No,No,No,No,No,No,No,No,No,No,No,,,,,,,,,,,,,
Compost Facility,Valley Green Compost,Private,27550 S Dryland Rd,Canby,OR,97013,Clackamas,503-964-1976,,,,,,,,,No,No,No,Yes,No,No,No,No,No,No,No,No,No,No,No,No,No,No,No,,,,,,,,,,,,,
Recycling Center,KB Recycling Inc. Materials Recovery Facility,Private,9602 Se Clackamas Rd,Clackamas,OR,97015,Clackamas,503-266-3900,https://www.oregonmetro.gov/tools-living/garbage-and-recycling/find-a-recycler/recyclers/575,No,7:00AM-3:30PM,7:00AM-3:30PM,7:00AM-3:30PM,7:00AM-3:30PM,7:00AM-3:30PM,No,No,No,No,No,No,No,Yes,Yes,Yes,Yes,Yes,Yes,Yes,,,,,No,No,,,,,,,,,,,,,
Recycling Center,Universal Recycling Technologies,Private,10151 Se Jennifer St,Clackamas,OR,97015,Clackamas,608-754-3400,http://www.universalrecyclers.com/,No,8:00AM-3:00PM,8:00AM-3:00PM,8:00AM-3:00PM,8:00AM-3:00PM,8:00AM-3:00PM,No,No,No,No,No,No,No,Yes,Yes,Yes,Yes,Yes,Yes,Yes,,,,,No,No,,,,,,,,,,,,,
Transfer Station,Canby Transfer & Recycling Center,Government,1600 Se 4Th Ave,Canby,OR,97013,Clackamas,503-266-3900,http://canbydisposal.com/,No,8:00AM-5:00PM,8:00AM-5:00PM,8:00AM-5:00PM,8:00AM-5:00PM,8:00AM-5:00PM,No,Yes,No,No,No,No,No,No,No,No,No,No,No,No,No,No,No,No,No,Yes,,,,,,,,,,,,,
Transfer Station,Clackamas County Garbage & Recycling Transfer Station aka Sandy Transfer Station,Government,19600 Se Canyon Valley Road,Sandy,OR,97055,Clackamas,503-353-4466,,,,,,,,,Yes,No,Yes,Yes,Yes,Yes,Yes,Yes,Yes,Yes,Yes,Yes,Yes,No,No,No,No,No,Yes,,,,,,,,,,,,,
Transfer Station,Metro South Transfer Station,Government,2001 Washington St,Oregon City,OR,97045,Clackamas,503-234-3000,http://www.oregonmetro.gov/tools-living/garbage-and-recycling/garbage-recycling-hazardous-waste-disposal-oregon-city,7:00AM-7:00PM,7:00AM-7:00PM,7:00AM-7:00PM,7:00AM-7:00PM,7:00AM-7:00PM,7:00AM-7:00PM,7:00AM-7:00PM,Yes,No,Yes,Yes,Yes,Yes,No,No,No,No,No,No,No,No,No,No,No,No,Yes,,,,,,,,,,,,,
Waste Tire Facility,"Tire Disposal Co., Inc. dba: Molalla Discount Tire",Private,14377 S Macksburg Rd,Molalla,OR,97038,Clackamas,503-829-8322,http://www.molalladiscounttire.com/,No,8:00AM-5:00PM,8:00AM-5:00PM,8:00AM-5:00PM,8:00AM-5:00PM,8:00AM-5:00PM,8:00AM-3:00PM,No,No,No,No,No,No,No,No,No,No,No,No,No,No,No,No,No,No,Yes,,,,,,,,,,,,,
Waste Tire Facility,CarMax 7285,Private,13750 Se Johnson Rd,Milwaukie,OR,97222,Clackamas,804-747-0422,https://www.carmax.com/stores/7285?utm_source=SEO_Local&utm_medium=SEO_Local_Sck_Pack&utm_campaign=SEO_OR&utm_content=SEO_Milwaukie&utm_term=SEO_7285,11:00AM-7:00PM,10:00AM-9:00PM,10:00AM-9:00PM,10:00AM-9:00PM,10:00AM-9:00PM,10:00AM-9:00PM,9:00AM-9:00PM,No,No,No,No,No,No,No,No,No,No,No,No,No,No,No,No,No,No,Yes,,,,,,,,,,,,,
Waste Tire Facility,Dietrich Trucking LLC,Private,7211 Ne 43Rd Ave Ste A,Vancouver,OR,98661,Clark,360-573-2000,http://dietrichtrucking.com/,No,8:00AM-5:00PM,8:00AM-5:00PM,8:00AM-5:00PM,8:00AM-5:00PM,8:00AM-5:00PM,No,No,No,No,No,No,No,No,No,No,No,No,No,No,No,No,No,No,No,Yes,,,,,,,,,,,,,
Compost Facility,Trails End Recovery Compost,Private,34635-34661 Airport Lane,Warrenton,OR,97146,Clatsop,503-861-6030,http://trailsendrecovery.com/,No,8:00AM-4:30PM,8:00AM-4:30PM,8:00AM-4:30PM,8:00AM-4:30PM,8:00AM-4:30PM,9:00AM-3:30PM,No,No,No,Yes,No,No,No,No,No,No,No,No,No,No,No,No,No,No,No,,,,,,,,,,,,,
Compost Facility,Laurelwood Farm Composting Facility,Private,34154 Hwy 26,Seaside,OR,97138,Clatsop,503-738-5954,,No,8:00AM-5:00PM,8:00AM-5:00PM,8:00AM-5:00PM,8:00AM-5:00PM,8:00AM-5:00PM,8:00AM-5:00PM,No,No,No,Yes,No,No,No,No,No,No,No,No,No,No,No,No,No,No,No,,,,,,,,,,,,,
Recycling Center,Trails End Recovery MRF,Private,34635-34661 Airport Lane,Warrenton,OR,97146,Clatsop,503-861-6030,http://trailsendrecovery.com/,No,8:00AM-4:30PM,8:00AM-4:30PM,8:00AM-4:30PM,8:00AM-4:30PM,8:00AM-4:30PM,9:00AM-3:30PM,No,No,No,No,No,No,Yes,Yes,Yes,Yes,Yes,Yes,Yes,,,,,No,No,,,,,,,,,,,,,
Recycling Center,Georgia Pacific Consumer Pr Wauna Mill Landfill,Private,92326 Taylorville Rd,Clatskanie,OR,97016,Clatsop,503-455-3236,https://www.gp.com/,24 hours,24 hours,24 hours,24 hours,24 hours,24 hours,24 hours,No,No,No,No,No,No,No,No,No,No,No,No,No,No,No,No,No,No,No,,,,,,,,,,,,,
Transfer Station,Astoria Transfer Station,Government, 1790 Williamsport Road,Astoria,OR,97103,Clatsop,503-474-4836,http://www.recologywesternoregon.com/,No,8:00AM-5:00PM,8:00AM-5:00PM,8:00AM-5:00PM,8:00AM-5:00PM,8:00AM-5:00PM,8:00AM-5:00PM,No,No,No,No,No,No,No,No,No,No,No,No,No,No,No,No,No,No,No,,,,,,,,,,,,,
Transfer Station,Astoria Transfer Station,Government, 1790 Williamsport Road,Astoria,OR,97103,Clatsop,503-474-4836,http://www.recologywesternoregon.com/,No,8:00AM-5:00PM,8:00AM-5:00PM,8:00AM-5:00PM,8:00AM-5:00PM,8:00AM-5:00PM,8:00AM-5:00PM,No,No,No,No,No,No,No,No,No,No,No,No,No,No,No,No,No,No,No,,,,,,,,,,,,,
Compost Facility,"Beaver Bark, Inc.",Private,54000 West Lane Road,Scappoose,OR,97056,Columbia,503-543-3000,http://www.beaverbarkllc.com/,No,8:00AM-4:00PM,8:00AM-4:00PM,8:00AM-4:00PM,8:00AM-4:00PM,8:00AM-4:00PM,No,No,No,No,Yes,No,No,No,No,No,No,No,No,No,No,No,No,No,No,No,,,,,,,,,,,,,
Transfer Station,Columbia County HHW & Transfer Station,Government,1601 Railroad Avenue,St. Helens,OR,97051,Columbia,503-397-7213,http://www.co.columbia.or.us/departments/land-development-services-main/solid-waste-program,No,8:00AM-5:00PM,8:00AM-5:00PM,8:00AM-5:00PM,8:00AM-5:00PM,8:00AM-5:00PM,8:00AM-5:00PM,,,,,,,,,,,,,,,,,,,,,,,,,,,,,,,,
Transfer Station,Vernonia Transfer Station,Private, 500 California Avenue,Vernonia,OR,97064,Columbia,503-366-2613,http://www.vernonia-or.gov/,No,8:00AM-5:00PM,8:00AM-5:00PM,8:00AM-5:00PM,8:00AM-5:00PM,8:00AM-5:00PM,No,Yes,No,No,Yes,Yes,Yes,No,No,No,No,No,No,No,No,No,No,No,No,No,,,,,,,,,,,,,
Compost Facility,SeaCoast Compost,Private,63073 Seven Devils Rd,Charleston,OR,97420,Coos,541-888-6757,https://redefiningcompost.com/contact/,,,,,,,,No,No,No,Yes,No,No,No,No,No,No,No,No,No,No,No,No,No,No,No,,,,,,,,,,,,,
Compost Facility,Bandon Organic Compost Company,Private,88154 Barnekoff Ln,Bandon,OR,97411,Coos,541-347-9393,,,,,,,,,No,No,No,Yes,No,No,No,No,No,No,No,No,No,No,No,No,No,No,No,,,,,,,,,,,,,
Landfill,Coquille Disposal Site,Private,"Sec02,T28S,R13W",Coquille,OR,97423,Coos,541-679-2130,http://www.co.coos.or.us/departments/solidwaste.aspx,No,No,8:00AM-4:30PM,8:00AM-4:30PM,8:00AM-4:30PM,8:00AM-4:30PM,8:00AM-4:30PM,,,,,,,,,,,,,,,,,,,,,,,,,,,,,,,,
Landfill,North Spit Landfill,Private,Horsfall Beach Rd,North Bend,OR,97459,Coos,713-400-2834,,,,,,,,,,,,,,,,,,,,,,,,,,,,,,,,,,,,,,,,
Transfer Station,Beaver Hill Solid Waste Facility,Government,55722 Hwy 101,Coos Bay,OR,97420,Coos,541-396-7660,http://www.co.coos.or.us/Departments/SolidWaste.aspx,No,No,8:30AM-4:00PM,8:30AM-4:00PM,8:30AM-4:00PM,8:30AM-4:00PM,8:30AM-4:00PM,,,,,,,,,,,,,,,,,,,,,,,,,,,,,,,,
Transfer Station,West Coast Recycling And Transfer Inc. dba Public Disposal & Recycling,Private,1210 S. Broadway St. ,Coos Bay,OR,97420,Coos,541-756-5868,,No,8:00AM-5:00PM,8:00AM-5:00PM,8:00AM-5:00PM,8:00AM-5:00PM,8:00AM-5:00PM,8:00AM-5:00PM,,,,,,,,,,,,,,,,,,,,,,,,,,,,,,,,
Compost Facility,Crook County Landfill Compost Facility,Government,5601 Sw Houston Lake Rd,Prineville,OR,97754,Crook,541-447-6555,http://co.crook.or.us/Departments/Landfill2/LandfillHome/tabid/2032/Default.aspx,No,8:00AM-4:30PM,8:00AM-4:30PM,8:00AM-4:30PM,8:00AM-4:30PM,8:00AM-4:30PM,8:00AM-4:30PM,No,No,No,Yes,No,No,No,No,No,No,No,No,No,No,No,No,No,No,No,,,,,,,,,,,,,
Landfill,Crook County Landfill,Government,5601 Sw Houston Lake Rd,Prineville,OR,97754,Crook,541-447-6555,http://co.crook.or.us/Departments/Landfill2/LandfillHome/tabid/2032/Default.aspx,No,8:00AM-4:30PM,8:00AM-4:30PM,8:00AM-4:30PM,8:00AM-4:30PM,8:00AM-4:30PM,8:00AM-4:30PM,,,,,,,,,,,,,,,,,,,,,,,,,,,,,,,,
Landfill,Regional Tire Recovery And Disposal Facility,Private,7220 Nw O Neil Hwy,Prineville,OR,97754,Crook,818-571-2425,http://www.tiredisposal-recycling.com/,No,8:00AM-3:30PM,8:00AM-3:30PM,8:00AM-3:30PM,8:00AM-3:30PM,8:00AM-3:30PM,No,,,,,,,,,,,,,,,,,,,,,,,,,,,,,,,,
Transfer Station,Paulina Transfer Station,Government,E Of Prineville @ Junction Of Hwy 113 & ,Paulina,OR,97751,Crook,541-447-6555,,,,,,,,,Yes,No,No,No,No,No,No,No,No,No,No,No,No,No,No,No,No,No,No,,,,,,,,,,,,,
Transfer Station,Prineville Disposal Reload Station,Private,1751 N Main St,Prineville,OR,97754,Crook,541-447-5208,http://www.prinevilledisposal.com/,No,8:00AM-4:00PM,8:00AM-4:00PM,8:00AM-4:00PM,8:00AM-4:00PM,8:00AM-4:00PM,No,,,,,,,,,,,,,,,,,,,,,,,,,,,,,,,,
Waste Tire Facility,"Grizzly Transport, LLC",Private,3595 Ne 3Rd St,Prineville,OR,97754,Crook,541-447-8377,,,,,,,,,No,No,No,No,No,No,No,No,No,No,No,No,No,No,No,No,No,No,Yes,,,,,,,,,,,,,
Landfill,South Coast Lumber,Private,Near Brookings Airport,Brookings,OR,97415,Curry,541-469-2136,http://www.pacificwoodlamites.com/,No,8:00AM-5:00PM,8:00AM-5:00PM,8:00AM-5:00PM,8:00AM-5:00PM,8:00AM-5:00PM,No,,,,,,,,,,,,,,,,,,,,,,,,,,,,,,,,
Transfer Station,Brookings Transfer Station,Government,17498 Carpenterville Rd,Brookings,OR,97415,Curry,541-469-2425,http://www.currytransferrecycling.com/,No,8:00AM-5:00PM,8:00AM-5:00PM,8:00AM-5:00PM,8:00AM-5:00PM,8:00AM-5:00PM,No,Yes,No,No,Yes,Yes,Yes,No,No,No,No,No,No,No,No,No,No,No,No,No,,,,,,,,,,,,,
Transfer Station,Nesika Beach Transfer Station,Government,6 Mi. N Of Gold Beach On Hwy. 101,Gold Beach,OR,97415,Curry,541-247-3291,,,,,,,,,Yes,No,No,Yes,Yes,Yes,No,No,No,No,No,No,No,No,No,No,No,No,No,,,,,,,,,,,,,
Transfer Station,Port Orford Transfer Station,Government,42750 Arizona St.,Port Orford,OR,97465,Curry,541-247-3291,http://www.portorford.org/publicworks.html,,,,,,,,Yes,No,No,Yes,Yes,Yes,No,No,No,No,No,No,No,No,No,No,No,No,No,,,,,,,,,,,,,
Transfer Station,Wridge Creek Transfer Station,Private,"T39S, R14W, S16Wm",Brookings,OR,97415,Curry,541-469-2425,http://www.currytransferrecycling.com/,No,8:00AM-5:00PM,8:00AM-5:00PM,8:00AM-5:00PM,8:00AM-5:00PM,8:00AM-5:00PM,No,Yes,No,No,Yes,Yes,Yes,No,No,No,No,No,No,No,No,No,No,No,No,No,,,,,,,,,,,,,
Compost Facility,Knott Pit Landfill Compost Facility,Government,61050  Se 27Th St,Bend,OR,97702,Deschutes,541-317-3163,http://www.deschutesrecycling.com/,7:00AM-5:00PM,7:00AM-5:00PM,7:00AM-5:00PM,7:00AM-5:00PM,7:00AM-5:00PM,7:00AM-5:00PM,7:00AM-5:00PM,No,No,No,Yes,No,No,No,No,No,No,No,No,No,No,No,No,No,No,No,,,,,,,,,,,,,
Landfill,Knott Landfill,Government,E Side Of Bend,Bend,OR,97702,Deschutes,541-317-3163,https://www.deschutes.org/solidwaste,No,7:00AM-4:30PM,7:00AM-4:30PM,7:00AM-4:30PM,7:00AM-4:30PM,7:00AM-4:30PM,7:00AM-4:30PM,,,,,,,,,,,,,,,,,,,,,,,,,,,,,,,,
Transfer Station,Alfalfa Transfer Station,Government,Walker Road,Bend,OR,97702,Deschutes,541-317-3163,http://www.deschutesrecycling.com/,7:00AM-5:00PM,7:00AM-5:00PM,7:00AM-5:00PM,7:00AM-5:00PM,7:00AM-5:00PM,7:00AM-5:00PM,7:00AM-5:00PM,Yes,No,Yes,Yes,Yes,Yes,No,No,No,No,No,No,No,No,No,No,No,No,Yes,,,,,,,,,,,,,
Transfer Station,Deschutes County Transfer Station and Household Hazardous Waste Facility,Government,61050  Se 27Th St,Bend,OR,97702,Deschutes,541-317-3163,https://www.deschutes.org/solidwaste,No,7:00AM-4:30PM,7:00AM-4:30PM,7:00AM-4:30PM,7:00AM-4:30PM,7:00AM-4:30PM,7:00AM-4:30PM,,,,,,,,,,,,,,,,,,,,,,,,,,,,,,,,
Transfer Station,Negus Transfer Station,Government,Off Negus Way (County Road),Redmond,OR,97756,Deschutes,541-317-3163,,No,8:00AM-4:00PM,8:00AM-4:00PM,8:00AM-4:00PM,8:00AM-4:00PM,8:00AM-4:00PM,8:00AM-4:00PM,Yes,No,Yes,Yes,Yes,Yes,No,No,No,No,No,No,No,No,No,No,No,No,Yes,,,,,,,,,,,,,
Transfer Station,Northwest  (Fryrear) Transfer Station,Government,68200 Fryrear Rd ,Sisters,OR,97759,Deschutes,541-317-3163,https://www.deschutes.org/solidwaste/page/administration-disposal-and-recycling-locations,No,No,No,9:00AM-5:00PM,Closed,No,No,,,,,,,,,,,,,,,,,,,,,,,,,,,,,,,,
Transfer Station,Southwest Transfer Station,Government,54580 Hwy 97 ,La Pine,OR,97739,Deschutes,541-317-3163,http://www.deschutes.org/solidwaste/page/administration-disposal-and-recycling-locations,No,No,No,8:00AM-4:00PM,8:00AM-4:00PM,8:00AM-4:00PM,8:00AM-4:00PM,Yes,No,No,Yes,Yes,Yes,No,No,No,No,No,No,No,No,No,No,No,No,No,,,,,,,,,,,,,
Landfill,Roseburg Landfill,Government,376 Roseburg Landfill Road,Roseburg,OR,97470,Douglas,541-440-4208,,,,,,,,,Yes,No,No,Yes,Yes,Yes,No,No,No,No,No,No,No,Yes,Yes,No,No,No,Yes,,,,,,,,,,,,,
Landfill,Riddle Ash Landfill,Private,Riddle By-Pass Road,Riddle,OR,97469,Douglas,541-679-2130,,,,,,,,,,,,,,,,,,,,,,,,,,,,,,,,,,,,,,,,
Landfill,Riddle Plywood Plant Disposal Site No. 1 & No. 2,Private,3064 Riddle Bypass Rd.,Riddle,OR,97469,Douglas,541-679-2130,,,,,,,,,,,,,,,,,,,,,,,,,,,,,,,,,,,,,,,,
Landfill,Rifle Range Road Landfill,Private,Near 556 Rifle Range Rd,Roseburg,OR,97470,Douglas,541-461-6233,,,,,,,,,,,,,,,,,,,,,,,,,,,,,,,,,,,,,,,,
Landfill,Roseburg Forest Products Dillard Disposal Site,Private,10700 Old Hwy 99S,Dillard,OR,97432,Douglas,541-679-2130,http://www.roseburg.com/,No,8:00AM-5:00PM,8:00AM-5:00PM,8:00AM-5:00PM,8:00AM-5:00PM,8:00AM-5:00PM,No,,,,,,,,,,,,,,,,,,,,,,,,,,,,,,,,
Landfill,Swanson Group Mfg. LLC Glide,Private,1/2 Mile South Of 1577 Glide Loop Rd.,Glide,OR,97443,Douglas,541-492-1115,,,,,,,,,,,,,,,,,,,,,,,,,,,,,,,,,,,,,,,,
Landfill,Umpqua Lumber Company Landfill,Private,Horizon Road,Dillard,OR,97470,Douglas,541-874-2231,,,,,,,,,,,,,,,,,,,,,,,,,,,,,,,,,,,,,,,,
Transfer Station,Camas Valley Transfer Station,Government,"County Rd. 214, 2 Mi. N. Of Camas Valley",Camas Valley,OR,97416,Douglas,541-440-4485,,,,,,,,,Yes,No,No,Yes,Yes,Yes,No,No,No,No,No,No,No,No,No,No,No,No,No,,,,,,,,,,,,,
Transfer Station,Canyonville Transfer Station,Government,600 Jordan Creek Road,Canyonville,OR,97417,Douglas,541-440-4485,http://recyclepower.org/,No,No,No,8:00AM-6:00PM,8:00AM-6:00PM,8:00AM-6:00PM,8:00AM-6:00PM,Yes,No,No,Yes,Yes,Yes,No,No,No,No,No,No,No,No,No,No,No,No,No,,,,,,,,,,,,,
Transfer Station,Elkton Transfer Station,Government,End Of County Rd. 320,Elkton,OR,97436,Douglas,541-440-4485,,No,No,No,8:00AM-6:00PM,Closed,No,No,Yes,No,No,Yes,Yes,Yes,No,No,No,No,No,No,No,No,No,No,No,No,No,,,,,,,,,,,,,
Transfer Station,Glendale Transfer Station,Government,240 Glendale Transfer Road,Glendale,OR,97442,Douglas,541-440-4485,http://www.recyclepower.org/,8:00AM-6:00PM,No,No,8:00AM-6:00PM,8:00AM-6:00PM,8:00AM-6:00PM,8:00AM-6:00PM,Yes,No,No,Yes,Yes,Yes,No,No,No,No,No,No,No,No,No,No,No,No,No,,,,,,,,,,,,,
Transfer Station,Glide Transfer Station,Government,13921 Glide Transfer Rd,Glide,OR,97443,Douglas,541-440-4485,http://www.recyclepower.org/,No,No,No,8:00AM-6:00PM,8:00AM-6:00PM,8:00AM-6:00PM,8:00AM-6:00PM,Yes,No,No,Yes,Yes,Yes,No,No,No,No,No,No,No,No,No,No,No,No,No,,,,,,,,,,,,,
Transfer Station,Myrtle Creek Transfer Station,Government,300 Myrtle Creek Transfer Rd.,Myrtle Creek,OR,97457,Douglas,541-440-4485,http://recyclepower.org/,No,No,No,8:00AM-6:00PM,8:00AM-6:00PM,8:00AM-6:00PM,8:00AM-6:00PM,Yes,No,No,Yes,Yes,Yes,No,No,No,No,No,No,No,No,No,No,No,No,No,,,,,,,,,,,,,
Transfer Station,Oakland Transfer Station,Government,220 Oakland-Sutherlin Transfer Rd.,Oakland,OR,97462,Douglas,541-440-4485,http://www.recyclepower.org/,8:00AM-6:00PM,No,No,No,8:00AM-6:00PM,8:00AM-6:00PM,8:00AM-6:00PM,Yes,No,No,Yes,Yes,Yes,No,No,No,No,No,No,No,No,No,No,No,No,No,,,,,,,,,,,,,
Transfer Station,Reedsport Transfer Station,Government,300 Reedsport Transfer Station Road,Reedsport,OR,97467,Douglas,541-440-4485,http://www.recyclepower.org/,No,No,No,8:00AM-6:00PM,8:00AM-6:00PM,8:00AM-6:00PM,8:00AM-6:00PM,Yes,No,No,Yes,Yes,Yes,No,No,No,No,No,No,No,Yes,Yes,No,No,No,No,,,,,,,,,,,,,
Transfer Station,Roseburg Transfer Station,Government,165 Mcclain West Ave.,Roseburg,OR,97470,Douglas,541-440-4485,http://www.recyclepower.org/,8:00AM-6:00PM,No,No,8:00AM-6:00PM,8:00AM-6:00PM,8:00AM-6:00PM,8:00AM-6:00PM,Yes,No,No,Yes,Yes,Yes,No,No,No,No,No,No,No,No,No,No,No,No,Yes,,,,,,,,,,,,,
Transfer Station,Tiller Transfer Station,Government,150 Tiller Transfer Rd.,Tiller,OR,97484,Douglas,541-440-4485,,,,,,,,,Yes,No,No,Yes,Yes,Yes,No,No,No,No,No,No,No,No,No,No,No,No,No,,,,,,,,,,,,,
Transfer Station,Yoncalla Transfer Station,Government,555 Yoncalla Transfer Rd,Yoncalla,OR,97499,Douglas,541-440-4485,http://www.recyclepower.org/,8:00AM-6:00PM,No,No,8:00AM-6:00PM,8:00AM-6:00PM,8:00AM-6:00PM,8:00AM-6:00PM,Yes,No,No,Yes,Yes,Yes,No,No,No,No,No,No,No,No,No,No,No,No,No,,,,,,,,,,,,,
Compost Facility,Columbia Ridge Landfill: Composting,Private,18177 Cedar Springs Ln,Arlington,OR,97812,Gilliam,541-454-3201,https://www.wm.com/,No,6:15AM-3:30PM,6:15AM-3:30PM,6:15AM-3:30PM,6:15AM-3:30PM,6:15AM-3:30PM,No,Yes,No,No,Yes,Yes,Yes,No,No,No,No,No,No,No,Yes,Yes,No,No,No,No,,,,,,,,,,,,,
Landfill,Columbia Ridge Landfill,Private,18177 Cedar Springs Ln,Arlington,OR,97812,Gilliam,541-454-2030,https://www.wm.com/,No,6:15AM-3:30PM,6:15AM-3:30PM,6:15AM-3:30PM,6:15AM-3:30PM,6:15AM-3:30PM,No,Yes,No,No,Yes,Yes,Yes,No,No,No,No,No,No,No,Yes,Yes,No,No,No,No,,,,,,,,,,,,,
Transfer Station,Columbia Ridge Transfer Station,Private,18177 Cedar Springs Ln,Arlington,OR,97812,Gilliam,541-454-2030,https://www.wm.com/,No,6:15AM-3:30PM,6:15AM-3:30PM,6:15AM-3:30PM,6:15AM-3:30PM,6:15AM-3:30PM,No,Yes,No,No,No,Yes,Yes,No,No,No,No,No,No,No,No,No,Yes,Yes,Yes,No,,,,,,,,,,,,,
Transfer Station,Condon Transfer Station,Government,Brown Lane,Condon,OR,97823,Gilliam,541-384-2711,http://cityofcondon.com/recycling/,,,,,,,,Yes,No,No,Yes,Yes,Yes,No,No,No,No,No,No,No,No,No,No,No,No,Yes,,,,,,,,,,,,,
Landfill,Silvies Valley Ranch LLC,Private,40000 E. Cowboy Lane,Seneca,OR,97873,Grant,541-589-3994,https://www.silvies.us/,8:00AM-9:00PM,8:00AM-9:00PM,8:00AM-9:00PM,8:00AM-9:00PM,8:00AM-9:00PM,8:00AM-9:00PM,8:00AM-9:00PM,,,,,,,,,,,,,,,,,,,,,,,,,,,,,,,,
Transfer Station,Hendrix  (Clark's) Transfer Station,Government,26431 Luce Creek Rd.,John Day,OR,97845,Grant,541-575-0059,https://clarks-disposal.business.site/?utm_source=gmb&utm_medium=referral,No,11:00AM-2:00PM,11:00AM-2:00PM,11:00AM-2:00PM,11:00AM-2:00PM,11:00AM-2:00PM,No,,,,,,,,,,,,,,,,,,,,,,,,,,,,,,,,
Transfer Station,Long Creek Transfer Station,Government,55356 Paul Creek Lane,Long Creek,OR,97856,Grant,541-421-3601,,,,,,,,,Yes,No,No,No,No,No,No,No,No,No,No,No,No,No,No,No,No,No,No,,,,,,,,,,,,,
Transfer Station,Monument Transfer Station,Government,"North Of Monument On ""Airport Road""",Monument,OR,97864,Grant,541-934-2025,,,,,,,,,Yes,No,No,No,No,No,No,No,No,No,No,No,No,No,No,No,No,No,No,,,,,,,,,,,,,
Transfer Station,Seneca Transfer Station,Government,Shirttail Creek Road Sec34,Seneca,OR,97873,Grant,541-542-2161,,No,7:00AM-6:00PM,No,7:00AM-6:00PM,Closed,No,7:00AM-3:00PM,Yes,No,No,No,No,No,No,No,No,No,No,No,No,No,No,No,No,No,No,,,,,,,,,,,,,
Landfill,Burns-Hines Disposal Site,Private,"Sec 14, T23S, R30E",Burns,OR,97720,Harney,541-573-6441,,11:00AM-4:00PM,10:00AM-7:00PM,10:00AM-7:00PM,10:00AM-7:00PM,10:00AM-7:00PM,10:00AM-7:00PM,10:00AM-7:00PM,Yes,No,No,No,Yes,Yes,No,No,No,No,No,No,No,Yes,Yes,No,No,No,No,,,,,,,,,,,,,
Landfill,Diamond Disposal Site,Government,"Sec 15, T29S, R32E",Diamond,OR,97722,Harney,541-573-6356,http://www.diamonddisposalllc.com/,No,7:00AM-4:00PM,7:00AM-4:00PM,7:00AM-4:00PM,7:00AM-4:00PM,7:00AM-4:00PM,No,Yes,No,No,Yes,Yes,Yes,No,No,No,No,No,No,No,No,No,No,No,No,No,,,,,,,,,,,,,
Landfill,Drewsey Disposal Site,Government,"Sec 7, T20S, R36E",Drewsey,OR,97904,Harney,541-573-6356,,,,,,,,,Yes,No,No,Yes,Yes,Yes,No,No,No,No,No,No,No,No,No,No,No,No,No,,,,,,,,,,,,,
Landfill,Fields Disposal Site,Government,"Andrews (Unincorporated) Sec24,T35S,R33E",Fields,OR,,Harney,541-573-6356,,,,,,,,,Yes,No,No,Yes,Yes,Yes,No,No,No,No,No,No,No,No,No,No,No,No,No,,,,,,,,,,,,,
Landfill,Frenchglen Disposal Site,Government,"Sec 9, T32S, R32E",Frenchglen,OR,97736,Harney,541-573-6356,http://www.frenchglenhotel.com/,,,,,,,,Yes,No,No,Yes,Yes,Yes,No,No,No,No,No,No,No,No,No,No,No,No,No,,,,,,,,,,,,,
Landfill,Riley Disposal Site,Government,"Sec 10, T23S, R26E",Riley,OR,97758,Harney,541-573-6356,,,,,,,,,Yes,No,No,Yes,Yes,Yes,No,No,No,No,No,No,No,No,No,No,No,No,No,,,,,,,,,,,,,
Compost Facility,Columbia Gorge Organic Fruit Compost Facility,Private,3510 Central Vale Rd,Hood River,OR,97031,Hood River,541-354-1066,http://www.cogojuice.com/,No,8:00AM-4:30PM,8:00AM-4:30PM,8:00AM-4:30PM,8:00AM-4:30PM,8:00AM-4:30PM,No,No,No,No,Yes,No,No,No,No,No,No,No,No,No,No,No,No,No,No,No,,,,,,,,,,,,,
Transfer Station,Hood River Recycling & Transfer Station + Tri-County HHHW Collection Facility,Private,3440 Guignard Dr,Hood River,OR,97031,Hood River,503-288-7844,http://www.hoodrivergarbage.com/,No,8:00AM-5:00PM,8:00AM-5:00PM,8:00AM-5:00PM,8:00AM-5:00PM,8:00AM-5:00PM,No,Yes,No,No,Yes,Yes,Yes,No,No,No,No,No,No,No,No,No,No,No,No,No,,,,,,,,,,,,,
Waste Tire Facility,Jubitz Tire/Soil Berm,Private,8700 Clear Creek Rd.,Parkdale,OR,97041,Hood River,503-292-0046,,,,,,,,,No,No,No,No,No,No,No,No,No,No,No,No,No,No,No,No,No,No,Yes,,,,,,,,,,,,,
Compost Facility,Rogue Compost Facility,Private,6260 Dry Creek Rd,Eagle Point,OR,97524,Jackson,541-779-4161,,,,,,,,,No,No,No,Yes,No,No,No,No,No,No,No,No,No,No,No,No,No,No,No,,,,,,,,,,,,,
Compost Facility,Hilton Fuel & Supply Company,Private,8087 Blackwell Rd,Central Point,OR,97502,Jackson,541-664-3374,http://hiltonlandscapesupply.com/,No,7:00AM-4:30PM,7:00AM-4:30PM,7:00AM-4:30PM,7:00AM-4:30PM,7:00AM-4:30PM,7:00AM-4:30PM,No,No,No,Yes,No,No,No,No,No,No,No,No,No,No,No,No,No,No,No,,,,,,,,,,,,,
Landfill,Dry Creek Landfill,Private,6260 Dry Creek Road,Eagle Point,OR,97524,Jackson,541-494-5455,http://roguedisposal.com/about-the-landfill/,No,8:00AM-5:00PM,8:00AM-5:00PM,8:00AM-5:00PM,8:00AM-5:00PM,8:00AM-5:00PM,7:00AM-4:00PM,Yes,No,No,No,Yes,Yes,No,No,No,No,No,No,No,Yes,Yes,No,No,No,No,,,,,,,,,,,,,
Transfer Station,Rogue Transfer Station & Mrf,Private,8001 Table Rock Rd,Medford,OR,97503,Jackson,541-779-4161,https://roguedisposal.com/transfer-station,No,7:00AM-5:00PM,7:00AM-5:00PM,7:00AM-5:00PM,7:00AM-5:00PM,7:00AM-5:00PM,7:00AM-5:00PM,,,,,,,,,,,,,,,,,,,,,,,,,,,,,,,,
Transfer Station,Valley View Transfer Station,Private,3000 N. Valley View Rd.,Ashland,OR,97520,Jackson,541-552-5602,https://www.recology.com/recology-ashland/valley-view-transfer-station/,No,7:30AM-4:00PM,7:30AM-4:00PM,7:30AM-4:00PM,7:30AM-4:00PM,7:30AM-4:00PM,7:30AM-4:00PM,Yes,No,No,Yes,Yes,Yes,Yes,Yes,Yes,Yes,Yes,Yes,Yes,Yes,Yes,No,No,No,Yes,,,,,,,,,,,,,
Compost Facility,"High Desert Organix, LLC Compost Facility",Private,Ne Cherry Lane,Madras,OR,97741,Jefferson,541-475-2627,,,,,,,,,No,No,No,Yes,No,No,No,No,No,No,No,No,No,No,No,No,No,No,No,,,,,,,,,,,,,
Transfer Station,Box Canyon Transfer Station,Government,1760 Se Mctaggart,Madras,OR,97741,Jefferson,503-899-7248,http://madrassanitary.com/,8:30AM-4:30PM,8:30AM-4:30PM,No,No,Closed,8:30AM-4:30PM,8:30AM-4:30PM,Yes,No,No,Yes,Yes,Yes,No,No,No,No,No,No,No,No,No,No,No,No,No,,,,,,,,,,,,,
Transfer Station,Camp Sherman Transfer Station,Government,Intersection Of Nf Rd 14 And 1419 ,Camp Sherman,OR,97730,Jefferson,503-899-7248,,,,,,,,,,,,,,,,,,,,,,,,,,,,,,,,,,,,,,,,
Compost Facility,"Southern Oregon Compost, LLC",Private,5863 Lower River Rd.,Grants Pass,OR,97526,Josephine,541-479-7409,,No,9:00AM-3:00PM,9:00AM-3:00PM,9:00AM-3:00PM,9:00AM-3:00PM,9:00AM-3:00PM,9:00AM-3:00PM,No,No,No,Yes,No,No,No,No,No,No,No,No,No,No,No,No,No,No,No,,,,,,,,,,,,,
Transfer Station,Josephine Recycling And Transfer Station,Private,1749 Merlin Rd,Grants Pass,OR,97526,Josephine,541-479-3371,http://www.republicservices.com/?utm_source=yext.com&utm_medium=referral&utm_campaign=Yext_Profile_Click_Google&utm_term=454,,,,,,,,Yes,No,Yes,No,Yes,Yes,No,No,No,No,No,No,No,No,No,No,No,No,Yes,,,,,,,,,,,,,
Transfer Station,Kerby Transfer Station,Private,"Off Mainline Road Northeast Of Kerby, Or",Kerby,OR,97544,Josephine,541-479-5335,http://www.sosanitation.com/,No,9:00AM-4:00PM,9:00AM-4:00PM,9:00AM-4:00PM,9:00AM-4:00PM,9:00AM-4:00PM,9:00AM-4:00PM,,,,,,,,,,,,,,,,,,,,,,,,,,,,,,,,
Transfer Station,Southern Oregon Sanitation Transfer Station,Private,1381 Redwood Ave,Grants Pass,OR,97527,Josephine,541-479-5335,http://www.sosanitation.com/,8:00AM-5:00PM,8:00AM-5:00PM,8:00AM-5:00PM,8:00AM-5:00PM,8:00AM-5:00PM,8:00AM-5:00PM,8:00AM-5:00PM,Yes,No,No,No,No,No,Yes,Yes,Yes,Yes,Yes,Yes,Yes,No,No,No,No,No,No,,,,,,,,,,,,,
Compost Facility,Regional Disposal Company,Private,54 South Dawson Street,Seattle,OR,98134,King,206-332-7768,,No,8:00AM-5:00PM,8:00AM-5:00PM,8:00AM-5:00PM,8:00AM-5:00PM,8:00AM-5:00PM,No,No,No,No,Yes,No,No,No,No,No,No,No,No,No,No,No,No,No,No,No,,,,,,,,,,,,,
Compost Facility,Stateline Compost,Private,24600 Hwy 97,Klamath Falls,OR,97627,Klamath,541-880-8318,,,,,,,,,No,No,No,Yes,No,No,No,No,No,No,No,No,No,No,No,No,No,No,No,,,,,,,,,,,,,
Compost Facility,Klamath Falls Landfill-compost facility,Government,801 Old Fort Rd,Klamath Falls,OR,97601,Klamath,541-883-5121,,8:00AM-4:00PM,8:00AM-4:00PM,8:00AM-4:00PM,8:00AM-4:00PM,8:00AM-4:00PM,8:00AM-4:00PM,8:00AM-4:00PM,Yes,No,No,Yes,Yes,Yes,No,No,No,No,No,No,No,Yes,Yes,No,No,No,Yes,,,,,,,,,,,,,
Compost Facility,Tulelake Compost Yard,Private,23423 Old Malin Hwy,Malin,OR,97632,Klamath,623-853-9880,,,,,,,,,No,No,No,Yes,No,No,No,No,No,No,No,No,No,No,No,No,No,No,No,,,,,,,,,,,,,
Landfill,Klamath Falls Landfill,Government,801 Old Fort Road,Klamath Falls,OR,97601,Klamath,541-883-4294,,8:00AM-4:00PM,8:00AM-4:00PM,8:00AM-4:00PM,8:00AM-4:00PM,8:00AM-4:00PM,8:00AM-4:00PM,8:00AM-4:00PM,Yes,No,No,Yes,Yes,Yes,No,No,No,No,No,No,No,Yes,Yes,No,No,No,Yes,,,,,,,,,,,,,
Landfill,Chemult Landfill,Government,400 Chemult Dump Road,Chemult,OR,97731,Klamath,541-891-1608,,,,,,,,,,,,,,,,,,,,,,,,,,,,,,,,,,,,,,,,
Transfer Station,Shady Pine Road,Private,11091 Shady Pine Road,Klamath,OR,97602,Klamath,541-882-8377,,,,,,,,,,,,,,,,,,,,,,,,,,,,,,,,,,,,,,,,
Transfer Station,Beatty Transfer Station,Government,21000 Yellow Jacket Springs Rd,Beatty,OR,97621,Klamath,541-891-1608,,,,,,,,,Yes,No,No,No,No,No,Yes,Yes,Yes,Yes,Yes,Yes,Yes,No,No,No,No,No,No,,,,,,,,,,,,,
Transfer Station,Bonanza Transfer Station,Government, 1101 Bonanza Cut-Off Rd,Bonanza,OR,97623,Klamath,541-891-1608,,8:00AM-4:00PM,8:00AM-4:00PM,8:00AM-4:00PM,8:00AM-4:00PM,8:00AM-4:00PM,8:00AM-4:00PM,8:00AM-4:00PM,Yes,No,No,Yes,Yes,Yes,No,No,No,No,No,No,No,No,No,No,No,No,No,,,,,,,,,,,,,
Transfer Station,Chiloquin Transfer Station,Government,2301 Chiloquin Sprague River Hwy,Chiloquin,OR,97624,Klamath,541-891-1608,,,,,,,,,Yes,No,No,Yes,Yes,Yes,No,No,No,No,No,No,No,No,No,No,No,No,No,,,,,,,,,,,,,
Transfer Station,Crescent Transfer Station,Government,"3 Mi. West Of Crescent, On Crescent Cut-",Crescent,OR,97733,Klamath,541-891-1608,,No,No,No,8:30AM-3:00PM,8:30AM-3:00PM,8:30AM-3:00PM,8:30AM-3:00PM,Yes,No,No,No,No,No,No,No,No,No,No,No,No,No,No,No,No,No,No,,,,,,,,,,,,,
Transfer Station,Keno Transfer Station,Government,15353 Keno-Worden Rd,Keno,OR,97603,Klamath,541-891-1608,,,,,,,,,Yes,No,No,Yes,Yes,Yes,Yes,Yes,Yes,Yes,Yes,Yes,Yes,No,No,No,No,No,No,,,,,,,,,,,,,
Transfer Station,Merrill Transfer Station,Government,13400 Lower Lake Rd,Merrill,OR,97633,Klamath,541-891-1608,,,,,,,,,Yes,No,No,Yes,Yes,Yes,No,No,No,No,No,No,No,No,No,No,No,No,No,,,,,,,,,,,,,
Transfer Station,Odessa Transfer Station,Government,26000 Hwy 140 West,Rocky Point,OR,97601,Klamath,541-891-1608,,8:00AM-4:00PM,8:00AM-4:00PM,8:00AM-4:00PM,8:00AM-4:00PM,8:00AM-4:00PM,8:00AM-4:00PM,8:00AM-4:00PM,Yes,No,No,Yes,Yes,Yes,No,No,No,No,No,No,No,No,No,No,No,No,No,,,,,,,,,,,,,
Transfer Station,Rogue Klamath Transfer Station,Private,4005 Tingley Ln,Klamath Falls,OR,97603,Klamath,,https://www.klamathcounty.org/359/Disposal-Locations,No,8:00AM-4:00PM,8:00AM-4:00PM,8:00AM-4:00PM,8:00AM-4:00PM,8:00AM-4:00PM,8:00AM-4:00PM,,,,,,,,,,,,,,,,,,,,,,,,,,,,,,,,
Transfer Station,Sprague River Transfer Station,Government,23101 Drews Rd,Sprague River,OR,97639,Klamath,541-891-1608,,,,,,,,,Yes,No,No,No,No,No,No,No,No,No,No,No,No,No,No,No,No,No,No,,,,,,,,,,,,,
Transfer Station,"Industrial Oil, Inc",Private,1291 Laverne Ave.,Klamath Falls,OR,97603,Klamath,800-404-9124,,,,,,,,,,,,,,,,,,,,,,,,,,,,,,,,,,,,,,,,
Compost Facility,McGarva Ranch,Private,16866 Westside Rd,Lakeview,OR,97630,Lake,541-947-4062,,,,,,,,,No,No,No,Yes,No,No,No,No,No,No,No,No,No,No,No,No,No,No,No,,,,,,,,,,,,,
Compost Facility,McGarva Ranch,Private,16866 Westside Rd,Lakeview,OR,97630,Lake,541-947-4062,,,,,,,,,No,No,No,Yes,No,No,No,No,No,No,No,No,No,No,No,No,No,No,No,,,,,,,,,,,,,
Landfill,Thomas Creek Road Landfill,Government,23980 Thomas Creek Road,Lakeview,OR,97630,Lake,541-947-6048,https://www.lakecountyor.org/government/land_fill.php,,,,,,,,,,,,,,,,,,,,,,,,,,,,,,,,,,,,,,,
Transfer Station,Christmas Valley Transfer Station,Government,"On County Rd 9-21, 4 Miles North Of Town",Christmas Valley,OR,97641,Lake,541-947-6048,http://www.lakecountyor.org/government/sheriff.php,,,,,,,,Yes,No,No,No,No,No,No,No,No,No,No,No,No,No,No,No,No,No,No,,,,,,,,,,,,,
Transfer Station,Fort Rock Transfer Station,Government,3 Miles West Of Fort Rock On County Road,Fort Rock,OR,97735,Lake,541-947-6048,,,,,,,,,Yes,No,No,No,No,No,No,No,No,No,No,No,No,No,No,No,No,No,No,,,,,,,,,,,,,
Transfer Station,Paisley Transfer Station,Government,3 Miles North Of Paisley,Paisley,OR,97636,Lake,541-947-6048,,,,,,,,,Yes,No,No,No,No,No,No,No,No,No,No,No,No,No,No,No,No,No,No,,,,,,,,,,,,,
Transfer Station,Silver Lake Transfer Station,Government,3 Miles Southeast Of Silver Lake Off Hwy,Silver Lake,OR,97638,Lake,541-947-6048,,,,,,,,,Yes,No,No,No,No,No,No,No,No,No,No,No,No,No,No,No,No,No,No,,,,,,,,,,,,,
Transfer Station,Thomas Creek Road Transfer Station,Government,23980 Thomas Creek Road,Lakeview,OR,97630,Lake,541-947-6048,http://www.lakecountyor.org/government/land_fill.php,,,,,,,,,,,,,,,,,,,,,,,,,,,,,,,,,,,,,,,
Compost Facility,JC Compost Yard,Private,Hwy 99 Station 140+75,Junction City,OR,97448,Lane,541-345-9085,,,,,,,,,No,No,No,Yes,No,No,No,No,No,No,No,No,No,No,No,No,No,No,No,,,,,,,,,,,,,
Compost Facility,Lane Forest Products,Private,2111 Prairie Road,Eugene,OR,97402,Lane,541-345-9085,https://laneforest.com/,9:00AM-5:00PM,7:30AM-5:30PM,7:30AM-5:30PM,7:30AM-5:30PM,7:30AM-5:30PM,7:30AM-5:30PM,7:30AM-5:30PM,No,No,No,Yes,No,No,No,No,No,No,No,No,No,No,No,No,No,No,No,,,,,,,,,,,,,
Compost Facility,"Shell New Energies, Junction City",Private,92757 Highway 99 S,Junction City,OR,97448,Lane,403-384-6150,,,,,,,,,No,No,No,Yes,No,No,No,No,No,No,No,No,No,No,No,No,No,No,No,,,,,,,,,,,,,
Compost Facility,Bloomberg Park Leaf Composting Facility,Government,Bloomberg Rd,Eugene,OR,97405,Lane,541-682-4800,,,,,,,,,No,No,No,Yes,No,No,No,No,No,No,No,No,No,No,No,No,No,No,No,,,,,,,,,,,,,
Compost Facility,Coburg Production Facility,Private,92574 N Coburg Rd,Eugene,OR,97408,Lane,541-342-1835,,,,,,,,,No,No,No,Yes,No,No,No,No,No,No,No,No,No,No,No,No,No,No,No,,,,,,,,,,,,,
Compost Facility,Winter Green Farm,Private,22481 West Sheffler Rd,Noti,OR,97461,Lane,541-935-1920,http://www.wintergreenfarm.com/,,,,,,,,No,No,No,Yes,No,No,No,No,No,No,No,No,No,No,No,No,No,No,No,,,,,,,,,,,,,
Landfill,Delta Sand & Gravel Demolition Landfill,Private,999 Division Street,Eugene,OR,97404,Lane,541-688-2233,http://www.deltasg.com/,No,7:30AM-4:00PM,7:30AM-4:00PM,7:30AM-4:00PM,7:30AM-4:00PM,7:30AM-4:00PM,No,,,,,,,,,,,,,,,,,,,,,,,,,,,,,,,,
Landfill,Short Mountain Landfill,Government,84777 Dillard Access Rd.,Eugene,OR,97405,Lane,541-682-3761,,,,,,,,,Yes,No,No,Yes,Yes,Yes,No,No,No,No,No,No,No,Yes,Yes,No,No,No,Yes,,,,,,,,,,,,,
Transfer Station,Cottage Grove Garbage,Private,2055 Getty Circle,Cottage Grove,OR,97424,Lane,541-942-8321,https://www.cottagegrovegarbage.com/,No,9:00AM-4:00PM,9:00AM-4:00PM,9:00AM-4:00PM,9:00AM-4:00PM,9:00AM-2:00PM,No,,,,,,,,,,,,,,,,,,,,,,,,,,,,,,,,
Transfer Station,Cottage Grove Transfer Station,Government,78760 Sears Rd.,Cottage Grove,OR,97424,Lane,541-682-4342,http://www.lanecounty.org/business/recycling_and_waste,No,No,No,8:00AM-6:00PM,8:00AM-6:00PM,8:00AM-6:00PM,8:00AM-6:00PM,Yes,No,No,Yes,Yes,Yes,No,No,No,No,No,No,No,No,No,No,No,No,No,,,,,,,,,,,,,
Transfer Station,Creswell Transfer Station,Government,34293 E Cloverdale Rd,Creswell,OR,97426,Lane,541-682-4342,http://www.lanecounty.org/,No,No,No,8:00AM-6:00PM,8:00AM-6:00PM,8:00AM-6:00PM,8:00AM-6:00PM,Yes,No,No,Yes,Yes,Yes,No,No,No,No,No,No,No,No,No,No,No,No,No,,,,,,,,,,,,,
Transfer Station,Florence Transfer Station,Government,2820 Rhododendron Dr,Florence,OR,97439,Lane,541-682-4342,http://www.lanecounty.org/business/recycling_and_waste,No,8:00AM-6:00PM,8:00AM-6:00PM,8:00AM-6:00PM,8:00AM-6:00PM,8:00AM-6:00PM,8:00AM-6:00PM,Yes,No,Yes,Yes,Yes,Yes,No,No,No,No,No,No,No,No,No,No,No,No,No,,,,,,,,,,,,,
Transfer Station,Glenwood Central Receiving Station,Government,3100 E. 17Th Ave.,Eugene,OR,97403,Lane,541-682-4342,,,,,,,,,Yes,No,Yes,Yes,Yes,Yes,No,No,No,No,No,No,No,No,No,No,No,No,No,,,,,,,,,,,,,
Transfer Station,London Transfer Station,Government,73111 London Rd,Cottage Grove,OR,97424,Lane,541-682-3773,http://www.lanecounty.org/business/recycling_and_waste,No,No,No,8:00AM-6:00PM,8:00AM-6:00PM,8:00AM-6:00PM,8:00AM-6:00PM,Yes,No,No,Yes,Yes,Yes,No,No,No,No,No,No,No,No,No,No,No,No,No,,,,,,,,,,,,,
Transfer Station,Low Pass Transfer Station,Government,22377 Hwy. 36,Cheshire,OR,97419,Lane,541-682-4342,,,,,,,,,Yes,No,No,Yes,Yes,Yes,No,No,No,No,No,No,No,No,No,No,No,No,No,,,,,,,,,,,,,
Transfer Station,Marcola Transfer Station,Government,38935 Shotgun Creek Road,Marcola,OR,97454,Lane,541-682-3773,,,,,,,,,Yes,No,No,Yes,Yes,Yes,No,No,No,No,No,No,No,No,No,No,No,No,No,,,,,,,,,,,,,
Transfer Station,McKenzie Bridge Transfer Station,Government,55805 Mckenzie Hwy,Blue River,OR,97413,Lane,541-682-4342,,,,,,,,,Yes,No,No,Yes,Yes,Yes,No,No,No,No,No,No,No,No,No,No,No,No,No,,,,,,,,,,,,,
Transfer Station,Oakridge Transfer Station,Government,48977 Kitson Springs Rd.,Oakridge,OR,97463,Lane,541-682-4342,,No,No,No,9:00AM-5:00PM,9:00AM-5:00PM,9:00AM-5:00PM,9:00AM-5:00PM,Yes,No,No,Yes,Yes,Yes,No,No,No,No,No,No,No,No,No,No,No,No,No,,,,,,,,,,,,,
Transfer Station,Rattlesnake Transfer Station,Government,82572 Rattlesnake Rd (Off Hwy. 58),Dexter,OR,97431,Lane,541-682-3773,http://www.lanecounty.org/business/recycling_and_waste,No,No,No,9:00AM-5:00PM,9:00AM-5:00PM,9:00AM-5:00PM,9:00AM-5:00PM,,,,,,,,,,,,,,,,,,,,,,,,,,,,,,,,
Transfer Station,Rexius Transfer Station,Private,120 Hwy 99,Eugene,OR,97402,Lane,541-342-1835,https://www.lanecountyor.gov/cms/one.aspx?pageId=15645045,8:00AM-5:00PM,8:00AM-6:00PM,8:00AM-6:00PM,8:00AM-6:00PM,8:00AM-6:00PM,8:00AM-6:00PM,8:00AM-6:00PM,,,,,,,,,,,,,,,,,,,,,,,,,,,,,,,,
Transfer Station,Sharps Creek Transfer Station,Government,74540 Sharps Creek Rd,Culp Creek,OR,97427,Lane,541-682-3773,,,,,,,,,,,,,,,,,,,,,,,,,,,,,,,,,,,,,,,,
Transfer Station,Swisshome Transfer Station,Government,13711 Highway 36 ,Swisshome,OR,97480,Lane,541-682-3773,,,,,,,,,Yes,No,No,Yes,Yes,Yes,No,No,No,No,No,No,No,No,No,No,No,No,No,,,,,,,,,,,,,
Transfer Station,Veneta Transfer Station,Government,24444 Bolton Hill Rd,Veneta,OR,97487,Lane,541-682-3773,http://www.lanecounty.org/business/recycling_and_waste,No,8:00AM-6:00PM,8:00AM-6:00PM,8:00AM-6:00PM,8:00AM-6:00PM,8:00AM-6:00PM,8:00AM-6:00PM,Yes,No,No,Yes,Yes,Yes,No,No,No,No,No,No,No,No,No,No,No,No,No,,,,,,,,,,,,,
Transfer Station,Vida-Leaburg Transfer Station,Government,44041 Canal Ln (Off Hwy. 126),Leaburg,OR,97489,Lane,541-682-4342,http://www.lanecounty.org/business/recycling_and_waste,No,No,No,9:00AM-5:00PM,9:00AM-5:00PM,9:00AM-5:00PM,9:00AM-5:00PM,,,,,,,,,,,,,,,,,,,,,,,,,,,,,,,,
Transfer Station,Walton Transfer Station,Government,18585 Transformer Rd.,Walton,OR,97490,Lane,541-682-3773,http://www.lanecounty.org/business/recycling_and_waste,No,8:00AM-6:00PM,8:00AM-6:00PM,8:00AM-6:00PM,8:00AM-6:00PM,8:00AM-6:00PM,8:00AM-6:00PM,Yes,No,No,Yes,Yes,Yes,No,No,No,No,No,No,No,No,No,No,No,No,No,,,,,,,,,,,,,
Transfer Station,Ecosort Material Recovery Facility,Private,3425 E 17Th Ave,Eugene,OR,97403,Lane,541-726-7552,http://www.ecosort.com/,No,8:00AM-5:00PM,8:00AM-5:00PM,8:00AM-5:00PM,8:00AM-5:00PM,8:00AM-5:00PM,No,,,,,,,,,,,,,,,,,,,,,,,,,,,,,,,,
Transfer Station,Lane Apex Disposal Service,Government,2399 Highway 99 N,Eugene,OR,97404,Lane,541-607-2042,https://www.heyapex.com/,No,8:00AM-4:00PM,8:00AM-4:00PM,8:00AM-4:00PM,8:00AM-4:00PM,8:00AM-4:00PM,No,,,,,,,,,,,,,,,,,,,,,,,,,,,,,,,,
Transfer Station,"McKenzie Recycling, Inc.",Private,110 North Cleveland St.,Eugene,OR,97402,Lane,541-688-5622,http://www.royalrefuseservice.com/page/services/,,,,,,,,Yes,No,No,No,Yes,Yes,Yes,Yes,Yes,Yes,Yes,Yes,Yes,No,No,No,No,No,No,,,,,,,,,,,,,
Waste Tire Facility,Reed's Fuel and Trucking,Private,4100 Commercial Ave,Springfield,OR,97478,Lane,541-746-6535,https://www.reedsfuel.com/,,,,,,,,No,No,No,No,No,No,No,No,No,No,No,No,No,No,No,No,No,No,Yes,,,,,,,,,,,,,
Waste Tire Facility,"The Big ""B"" Tire Store, Inc.",Private,3709 Franklin Blvd,Eugene ,OR,97403,Lane,541-746-4193,http://www.bigbtirestore.com/,10:00AM-5:00PM,8:00AM-6:00PM,8:00AM-6:00PM,8:00AM-6:00PM,8:00AM-6:00PM,8:00AM-6:00PM,8:00AM-6:00PM,No,No,No,No,No,No,No,No,No,No,No,No,No,No,No,No,No,No,Yes,,,,,,,,,,,,,
Landfill,GP-Toledo Mill Landfill,Private,1 Butler Bridge Rd (Near Sunnyridge Rd),Toledo,OR,97391,Lincoln,541-336-8041,http://www.gp.com/,,,,,,,,No,No,No,No,No,No,No,No,No,No,No,No,No,No,No,No,No,No,No,,,,,,,,,,,,,
Recycling Center,G-P Toledo MRF,Private,1400 Se Butler Bridge Road,Toledo,OR,97391,Lincoln,541-336-8318,,,,,,,,,No,No,No,No,No,No,Yes,Yes,Yes,Yes,Yes,Yes,Yes,,,,,No,No,,,,,,,,,,,,,
Transfer Station,Schooner Creek Private Transfer Station,Private,288 S Anderson Creek Rd,Lincoln City,OR,97367,Lincoln,541-994-5555,,No,8:00AM-4:00PM,8:00AM-4:00PM,8:00AM-4:00PM,8:00AM-4:00PM,8:00AM-4:00PM,8:00AM-4:00PM,,,,,,,,,,,,,,,,,,,,,,,,,,,,,,,,
Transfer Station,Schooner Creek Public Transfer Station,Private,367 S Anderson Creek Rd,Lincoln City,OR,97367,Lincoln,541-994-5555,,No,8:00AM-4:00PM,8:00AM-4:00PM,8:00AM-4:00PM,8:00AM-4:00PM,8:00AM-4:00PM,8:00AM-4:00PM,,,,,,,,,,,,,,,,,,,,,,,,,,,,,,,,
Transfer Station,South Lincoln Recycle & Transfer Station,Private,3300 Crestline Drive,Waldport,OR,97394,Lincoln,541-336-2932,http://www.dahldisposalservice.com/,No,9:00AM-4:00PM,9:00AM-4:00PM,9:00AM-4:00PM,9:00AM-4:00PM,9:00AM-4:00PM,9:00AM-4:00PM,Yes,No,No,Yes,Yes,Yes,No,No,No,No,No,No,No,No,No,No,No,No,No,,,,,,,,,,,,,
Transfer Station,Thompson's Transfer and Disposal Inc.,Private,8096 Ne Avery St.,Newport,OR,97365,Lincoln,541-265-5434,https://www.thompsonsanitary.com/,No,8:00AM-4:00PM,8:00AM-4:00PM,8:00AM-4:00PM,8:00AM-4:00PM,8:00AM-4:00PM,No,,,,,,,,,,,,,,,,,,,,,,,,,,,,,,,,
Transfer Station,Toledo Transfer Station,Private,"Sec04,T11S,R10W",Toledo,OR,97391,Lincoln,541-336-2932,http://www.dahldisposalservice.com/,No,9:00AM-4:30PM,9:00AM-4:30PM,9:00AM-4:30PM,9:00AM-4:30PM,9:00AM-4:30PM,9:00AM-4:30PM,Yes,No,Yes,Yes,Yes,Yes,Yes,Yes,Yes,Yes,Yes,Yes,Yes,No,No,No,No,No,Yes,,,,,,,,,,,,,
Compost Facility,Ground-Up Soil Compost Facility,Private,41389 Highway 226,Scio,OR,97374,Linn,503-769-2057,http://groundupsoil.com/,No,9:00AM-4:00PM,9:00AM-4:00PM,9:00AM-4:00PM,9:00AM-4:00PM,9:00AM-12:00PM,No,No,No,No,Yes,No,No,No,No,No,No,No,No,No,No,No,No,No,No,No,,,,,,,,,,,,,
Compost Facility,Stalford Seed Farms,Private,1/4 Mile N Of 30737 Green Valley Rd,Shedd,OR,97377,Linn,541-926-4611,,,,,,,,,No,No,No,Yes,No,No,No,No,No,No,No,No,No,No,No,No,No,No,No,,,,,,,,,,,,,
Landfill,Cedar Mill Road Landfill,Private,40580 Cedar Mill Road ,Lyons,OR,97358,Linn,503-859-2121,,,,,,,,,,,,,,,,,,,,,,,,,,,,,,,,,,,,,,,,
Recycling Center,Divert Albany Processing Facility,Private,950 Se Jackson St,Albany,OR,97322,Linn,978-341-5417,,,,,,,,,No,No,No,No,No,No,Yes,Yes,Yes,Yes,Yes,Yes,Yes,,,,,No,No,,,,,,,,,,,,,
Transfer Station,Lebanon Transfer Station,Private,33370 Brewster Rd.,Lebanon,OR,97355,Linn,541-745-5792 ext. 22,http://media.republicservices.com/2013-05-22-Republic-Services-Opens-New-Landfill-And-Transfer-Station,8:00AM-4:00PM,No,No,No,Closed,No,8:00AM-4:00PM,No,No,No,No,No,No,No,No,No,No,No,No,No,No,No,No,No,No,No,,,,,,,,,,,,,
Transfer Station,Sweet Home Sanitation Transfer Station,Private,1325 18Th Ave.,Sweet Home,OR,97386,Linn,541-367-2535,http://www.sweethomesanitation.com/,No,No,10:00AM-4:30PM,10:00AM-4:30PM,10:00AM-4:30PM,10:00AM-4:30PM,10:00AM-4:30PM,Yes,Yes,No,Yes,Yes,Yes,Yes,Yes,Yes,Yes,Yes,Yes,Yes,No,No,No,No,No,Yes,,,,,,,,,,,,,
Landfill,Lytle Boulevard Landfill,Government,"Sec 36, T20S, R45E",Vale,OR,97918,Malheur,541-473-5186),,No,No,1:00-5:00PM,No,1:00-5:00PM,No,9:00AM-5:00PM,Yes,No,No,No,Yes,Yes,No,No,No,No,No,No,No,Yes,Yes,No,No,No,Yes,,,,,,,,,,,,,
Transfer Station,Ontario Sanitary Service Transfer Station,Private,1108 Se 6Th Street,Ontario,OR,97914,Malheur,541-889-5719,http://ontariosanitary.net/,No,8:00AM-4:00PM,8:00AM-4:00PM,8:00AM-4:00PM,8:00AM-4:00PM,8:00AM-4:00PM,No,Yes,No,No,Yes,Yes,Yes,Yes,Yes,Yes,Yes,Yes,Yes,Yes,No,No,No,No,No,Yes,,,,,,,,,,,,,
Transfer Station,Ontario Sanitary Service Transfer Station,Private,1108 Se 6Th Street,Ontario,OR,97914,Malheur,541-889-5719,http://ontariosanitary.net/,No,8:00AM-4:00PM,8:00AM-4:00PM,8:00AM-4:00PM,8:00AM-4:00PM,8:00AM-4:00PM,No,Yes,No,No,Yes,Yes,Yes,Yes,Yes,Yes,Yes,Yes,Yes,Yes,No,No,No,No,No,Yes,,,,,,,,,,,,,
Compost Facility,Recology NW Greenlands-Aumsville,Private,8712 Aumsville Hwy,Salem,OR,97317,Marion,415-875-1000,,No,8:00AM-5:00PM,8:00AM-5:00PM,8:00AM-5:00PM,8:00AM-5:00PM,8:00AM-5:00PM,No,No,No,No,Yes,No,No,No,No,No,No,No,No,No,No,No,No,No,No,No,,,,,,,,,,,,,
Compost Facility,Annen Bros. Composting,Private,14358 Dominic Road,Mt. Angel,OR,97362,Marion,503-634-2589,,,,,,,,,No,No,No,Yes,No,No,No,No,No,No,No,No,No,No,No,No,No,No,No,,,,,,,,,,,,,
Compost Facility,Brown's Island Compost Facility,Government,2895 Faragate St South,Salem,OR,97302,Marion,503-365-3147,,,,,,,,,No,No,No,Yes,No,No,No,No,No,No,No,No,No,No,No,No,No,No,No,,,,,,,,,,,,,
Compost Facility,Willamette Landscape Supply Compost Facility,Private,3425 Blossom Dr Ne,Salem,OR,97305,Marion,503-393-6662,,No,8:00AM-4:00PM,8:00AM-4:00PM,8:00AM-4:00PM,8:00AM-4:00PM,8:00AM-4:00PM,8:00AM-4:00PM,No,No,No,Yes,No,No,No,No,No,No,No,No,No,No,No,No,No,No,No,,,,,,,,,,,,,
Landfill,Brown's Island Demolition Landfill,Government,2895 Faragate Street South,Salem,OR,97302,Marion,503-365-3147,,,,,,,,,No,No,No,No,Yes,Yes,No,No,No,No,No,No,No,No,No,No,No,No,No,,,,,,,,,,,,,
Landfill,Salem Airport Disposal Site,Government,"Sec 1, T8S, R3W",Salem,OR,97301,Marion,503-588-6044,http://www.co.marion.or.us/PW/ES/disposal/Pages/skrts.aspx,8:00AM-5:00PM,8:00AM-5:00PM,8:00AM-5:00PM,8:00AM-5:00PM,8:00AM-5:00PM,8:00AM-5:00PM,8:00AM-5:00PM,Yes,No,No,No,Yes,Yes,No,No,No,No,No,No,No,Yes,Yes,No,No,No,No,,,,,,,,,,,,,
Landfill,North Marion County Disposal Facility,Government,17827 Whitney Ln Ne,Woodburn,OR,97071,Marion,503-365-3147,https://www.co.marion.or.us/PW/ES/disposal/Pages/nmrts.aspx,8:00AM-5:00PM,8:00AM-5:00PM,8:00AM-5:00PM,8:00AM-5:00PM,8:00AM-5:00PM,8:00AM-5:00PM,8:00AM-5:00PM,,,,,,,,,,,,,,,,,,,,,,,,,,,,,,,,
Recycling Center,Marion Resource Recovery Fac,Government,3680 Brooklake Rd Ne,Salem,OR,97303,Marion,503-390-4000,,,,,,,,,No,No,No,No,No,No,Yes,Yes,Yes,Yes,Yes,Yes,Yes,,,,,No,No,,,,,,,,,,,,,
Transfer Station,Covanta Marion Inc.,Private,4850 Brooklake Road Ne,Brooks,OR,97305,Marion,503-393-0890,https://www.covanta.com/,No,7:00AM-4:00PM,7:00AM-4:00PM,7:00AM-4:00PM,7:00AM-4:00PM,7:00AM-4:00PM,No,,,,,,,,,,,,,,,,,,,,,,,,,,,,,,,,
Transfer Station,Construction Waste Processing and Transfer Center,Government,3121-3131 Airway Dr Se,Salem,OR,97302,Marion,503-588-6647,http://www.co.marion.or.us/PW/ES/disposal/Pages/skrts.aspx,8:00AM-5:00PM,8:00AM-5:00PM,8:00AM-5:00PM,8:00AM-5:00PM,8:00AM-5:00PM,8:00AM-5:00PM,8:00AM-5:00PM,,,,,,,,,,,,,,,,,,,,,,,,,,,,,,,,
Transfer Station,Gaffin Road Transfer Station,Private,3250 Deer Park Rd Se,Salem,OR,97301,Marion,503-363-8890,http://www.co.marion.or.us/PW/ES/disposal/Pages/skrts.aspx,8:00AM-5:00PM,8:00AM-5:00PM,8:00AM-5:00PM,8:00AM-5:00PM,8:00AM-5:00PM,8:00AM-5:00PM,8:00AM-5:00PM,,,,,,,,,,,,,,,,,,,,,,,,,,,,,,,,
Transfer Station,Marion County Hshld HW Coll Fac,Government,"3230 Deer Park Drive, Se",Salem,OR,97301,Marion,503-365-3147,,,,,,,,,,,,,,,,,,,,,,,,,,,,,,,,,,,,,,,,
Transfer Station,North Marion County Recycling &Transfer Station,Government,17827 Whitney Ln Ne,Woodburn,OR,97071,Marion,503-365-3147,https://www.co.marion.or.us/PW/ES/disposal/Pages/nmrts.aspx,8:00AM-5:00PM,8:00AM-5:00PM,8:00AM-5:00PM,8:00AM-5:00PM,8:00AM-5:00PM,8:00AM-5:00PM,8:00AM-5:00PM,,,,,,,,,,,,,,,,,,,,,,,,,,,,,,,,
Transfer Station,Woodburn Recycle Center & TS,Private,2215 N Front St,Woodburn,OR,97071,Marion,503.404.4145,,,,,,,,,,,,,,,,,,,,,,,,,,,,,,,,,,,,,,,,
Transfer Station,American Gypsum Recycling,Private,12451 Duck Flat Road Se,Turner,OR,97392,Marion,971-413-4992,http://americangypsumrecycling.com/,No,7:00AM-5:00PM,7:00AM-5:00PM,7:00AM-5:00PM,7:00AM-5:00PM,7:00AM-5:00PM,No,,,,,,,,,,,,,,,,,,,,,,,,,,,,,,,,
Compost Facility,Novus Pacific,Private,71419 East Columbia,Boardman,OR,97818,Morrow,FAX 952-345-1053,,,,,,,,,No,No,No,Yes,No,No,No,No,No,No,No,No,No,No,No,No,No,No,No,,,,,,,,,,,,,
Compost Facility,Klean Industries Boardman LLC,Private,71722 Ne Columbia Avenue,Boardman,OR,97844,Morrow,514-437-2966,,,,,,,,,No,No,No,Yes,No,No,No,No,No,No,No,No,No,No,No,No,No,No,No,,,,,,,,,,,,,
Landfill,Finley Buttes Regional Landfill,Private,73221 Bombing Range Road,Boardman,OR,97818,Morrow,541-965-1339,http://www.finleybutteslandfill.com/,No,7:30AM-3:30PM,7:30AM-3:30PM,7:30AM-3:30PM,7:30AM-3:30PM,7:30AM-3:30PM,No,Yes,No,No,Yes,Yes,Yes,No,No,No,No,No,No,No,Yes,Yes,No,No,No,Yes,,,,,,,,,,,,,
Transfer Station,North Morrow County Transfer Station,Government,69900 Frontage Lane,Boardman,OR,97818,Morrow,541-989-9500,http://www.co.morrow.or.us/publicworks/page/solid-waste-magement,9:00AM-4:00PM,No,No,No,Closed,No,9:00AM-4:00PM,,,,,,,,,,,,,,,,,,,,,,,,,,,,,,,,
Transfer Station,South Morrow Transfer Station,Government,Lexington/Heppner Hwy 74 ,Lexington,OR,97839,Morrow,541-989-9500,https://www.wm.com/,No,7:00AM-5:00PM,7:00AM-5:00PM,7:00AM-5:00PM,7:00AM-5:00PM,7:00AM-5:00PM,7:00AM-12:00PM,Yes,No,No,Yes,Yes,Yes,Yes,Yes,Yes,Yes,Yes,Yes,Yes,No,No,No,No,No,Yes,,,,,,,,,,,,,
Waste Tire Facility,Klean Industries Boardman LLC,Private,71722 Ne Columbia Avenue,Boardman,OR,97844,Morrow,514-437-2966,,,,,,,,,,,,,,,,,,,,,,,,,,,,,,,,,,,,,,,,
Compost Facility,Allwood Recyclers Inc.,Private,23001 Ne Marine Dr,Fairview,OR,97024,Multnomah,503-667-5497,http://www.allwoodrecyclersinc.com/,No,7:30AM-5:00PM,7:30AM-5:00PM,7:30AM-5:00PM,7:30AM-5:00PM,7:30AM-5:00PM,9:00AM-4:00PM,No,No,No,Yes,No,No,No,No,No,No,No,No,No,No,No,No,No,No,No,,,,,,,,,,,,,
Compost Facility,Sunderland Recycling Facility - City of Portland,Government,9325 Ne Sunderland Ave,Portland,OR,97211,Multnomah,503-823-4409,https://www.portlandoregon.gov/transportation/article/319723,No,7:00AM-2:30PM,7:00AM-2:30PM,7:00AM-2:30PM,7:00AM-2:30PM,7:00AM-2:30PM,No,No,No,No,Yes,No,No,No,No,No,No,No,No,No,No,No,No,No,No,No,,,,,,,,,,,,,
Landfill,Columbia Blvd WWTP Lagoon Solids Monofill,Government,5001 N. Columbia Blvd.,Portland,OR,97203,Multnomah,503-823-2437,https://www.portlandoregon.gov/bes/58744,No,7:30AM-4:00PM,7:30AM-4:00PM,7:30AM-4:00PM,7:30AM-4:00PM,7:30AM-4:00PM,No,,,,,,,,,,,,,,,,,,,,,,,,,,,,,,,,
Landfill,Esco Sauvie Island,Private,Gillihan Lp Rd & Alder Crk Lumber Rd,Portland,OR,97231,Multnomah,503-778-6477,,,,,,,,,,,,,,,,,,,,,,,,,,,,,,,,,,,,,,,,
Recycling Center,CORE Recycling,Government,4530 Ne 138Th Avenue,Portland,OR,97230,Multnomah,503-285-9940,http://www.cityofrosesdisposal.com/,No,7:00AM-3:00PM,7:00AM-3:00PM,7:00AM-3:00PM,7:00AM-3:00PM,7:00AM-3:00PM,7:00AM-12:00PM,No,No,No,No,No,No,Yes,Yes,Yes,Yes,Yes,Yes,Yes,,,,,No,No,,,,,,,,,,,,,
Recycling Center,Environmentally Conscious Recycling-ECR,Private,12409 Ne San Rafael,Portland,OR,97230,Multnomah,503-253-0867,http://www.ecrrecycling.com/,9:00AM-5:00PM,7:00AM-6:00PM,7:00AM-6:00PM,7:00AM-6:00PM,7:00AM-6:00PM,7:00AM-6:00PM,8:00AM-6:00PM,No,No,No,No,No,No,Yes,Yes,Yes,Yes,Yes,Yes,Yes,,,,,No,No,,,,,,,,,,,,,
Recycling Center,Foster Road Recovery Facility,Private,6400 Se 101St Ave,Portland,OR,97266,Multnomah,503-285-8777,https://www.recology.com/recology-portland/foster-road-material-recovery-facility/,,,,,,,,No,No,No,No,No,No,Yes,Yes,Yes,Yes,Yes,Yes,Yes,,,,,No,No,,,,,,,,,,,,,
Recycling Center,Suttle Road Recovery Facility,Private,4044 N Suttle Rd,Portland,OR,97217,Multnomah,503-285-8777,http://www.recologyoregonmaterialrecovery.com/,No,6:00AM-4:00PM,6:00AM-4:00PM,6:00AM-4:00PM,6:00AM-4:00PM,6:00AM-4:00PM,No,No,No,No,No,No,No,Yes,Yes,Yes,Yes,Yes,Yes,Yes,,,,,No,No,,,,,,,,,,,,,
Recycling Center,Urban Gypsum,Private,8823 N Harborgate,Portland,OR,97203,Multnomah,503.232.6130,http://www.urbangypsum.com/,No,6:30AM-3:30PM,6:30AM-3:30PM,6:30AM-3:30PM,6:30AM-3:30PM,6:30AM-3:30PM,6:30AM-2:00PM,No,No,No,No,No,No,Yes,Yes,Yes,Yes,Yes,Yes,Yes,,,,,No,No,,,,,,,,,,,,,
Recycling Center,WasteXpress,Private,11618 N Lombard St,Portland,OR,97203,Multnomah,503-224-3206,https://wastex16342.activehosted.com/f/13,No,8:00AM-5:00PM,8:00AM-5:00PM,8:00AM-5:00PM,8:00AM-5:00PM,8:00AM-5:00PM,No,No,No,No,No,No,No,Yes,Yes,Yes,Yes,Yes,Yes,Yes,,,,,No,No,,,,,,,,,,,,,
Transfer Station,Gresham Sanitary Service,Private,2131 Nw Birdsdale Ave,Gresham,OR,97030,Multnomah,503-665-2424,http://www.greshamsanitary.com/,No,8:00AM-4:30PM,8:00AM-4:30PM,8:00AM-4:30PM,8:00AM-4:30PM,8:00AM-4:30PM,No,,,,,,,,,,,,,,,,,,,,,,,,,,,,,,,,
Transfer Station,PPV Inc.,Private,4927 Nw Front Ave,Portland,OR,97210,Multnomah,503-261-9800,http://www.ppvnw.com/,No,7:00AM-5:00PM,7:00AM-5:00PM,7:00AM-5:00PM,7:00AM-5:00PM,7:00AM-5:00PM,No,,,,,,,,,,,,,,,,,,,,,,,,,,,,,,,,
Transfer Station,CORE Recycling,Government,5726 Ne 109Th Ave,Portland,OR,97220,Multnomah,503-285-9940,http://www.cityofrosesdisposal.com/,No,7:00AM-3:00PM,7:00AM-3:00PM,7:00AM-3:00PM,7:00AM-3:00PM,7:00AM-3:00PM,7:00AM-12:00PM,,,,,,,,,,,,,,,,,,,,,,,,,,,,,,,,
Transfer Station,Greenway Recycling,Private,4135 Nw St Helens Rd,Portland,OR,97210,Multnomah,503-793-9238,http://www.recyclegreenway.com/,No,4:00AM-5:00PM,4:00AM-5:00PM,4:00AM-5:00PM,4:00AM-5:00PM,4:00AM-5:00PM,8:00AM-12:00PM,,,,,,,,,,,,,,,,,,,,,,,,,,,,,,,,
Transfer Station,Metro Central Transfer Station,Government,6161 Nw 61St Ave,Portland,OR,97210,Multnomah,503-234-3000,https://www.oregonmetro.gov/tools-living/garbage-and-recycling/garbage-recycling-hazardous-waste-disposal-portland,8:00AM-5:00PM,8:00AM-5:00PM,8:00AM-5:00PM,8:00AM-5:00PM,8:00AM-5:00PM,8:00AM-5:00PM,8:00AM-5:00PM,Yes,No,Yes,Yes,Yes,Yes,No,No,No,No,No,No,No,No,No,No,No,No,Yes,,,,,,,,,,,,,
Transfer Station,Troutdale Transfer Station,Private,869 Nw Eastwind Dr,Troutdale,OR,97060,Multnomah,503-666-2896,http://crownpointrefuse.com/,,,,,,,,No,No,No,No,No,No,No,No,No,No,No,No,No,No,No,No,No,No,No,,,,,,,,,,,,,
Waste Tire Facility,McLean Landscaping - Maintenance,Private,1230 Sw Freeman St,Portland,OR,97219,Multnomah,503-977-2057,http://davemcleanlandscaping.com/,No,8:00AM-4:00PM,8:00AM-4:00PM,8:00AM-4:00PM,8:00AM-4:00PM,8:00AM-4:00PM,No,No,No,No,No,No,No,No,No,No,No,No,No,No,No,No,No,No,No,Yes,,,,,,,,,,,,,
Waste Tire Facility,Waste Management of Oregon,Private,7227 Ne 55Th Ave,Portland,OR,97218,Multnomah,503-493-7879,https://www.wm.com/store/portland-dumpster-rental.jsp,No,"8:00-11:30AM,12:30-4:00PM","8:00-11:30AM,12:30-4:00PM","8:00-11:30AM,12:30-4:00PM","8:00-11:30AM,12:30-4:00PM","8:00-11:30AM,12:30-4:00PM",No,No,No,No,No,No,No,No,No,No,No,No,No,No,No,No,No,No,No,Yes,,,,,,,,,,,,,
Waste Tire Facility,Columbia Recycling PDX,Private,11402 Ne Marx St,Portland,OR,97220,Multnomah,,https://www.columbiarecyclingpdx.com/,No,8:30AM-5:30PM,8:30AM-5:30PM,8:30AM-5:30PM,8:30AM-5:30PM,8:30AM-5:30PM,8:00AM-4:30PM,No,No,No,No,No,No,No,No,No,No,No,No,No,No,No,No,No,No,Yes,,,,,,,,,,,,,
Waste Tire Facility,"RB Recycling, Inc.",Private,9945 N Burgard Way,Portland,OR,97203,Multnomah,503-201-3638,https://www.oregonmetro.gov/tools-living/garbage-and-recycling/find-a-recycler/recyclers/343,,,,,,,,No,No,No,No,No,No,No,No,No,No,No,No,No,No,No,No,No,No,Yes,,,,,,,,,,,,,
Waste Tire Facility,"Tire Disposal and Recycling, Inc.",Private,9333 N Harborgate St,Portland,OR,97203,Multnomah,503-240-1919,http://tiredisposal-recycling.com/,No,8:00AM-4:00PM,8:00AM-4:00PM,8:00AM-4:00PM,8:00AM-4:00PM,8:00AM-4:00PM,No,No,No,No,No,No,No,No,No,No,No,No,No,No,No,No,No,No,No,Yes,,,,,,,,,,,,,
Compost Facility,Rod Mclellan Company,Private,6500 Hanna Rd,Independence,OR,97351,Polk,503-838-2811,,,,,,,,,No,No,No,Yes,No,No,No,No,No,No,No,No,No,No,No,No,No,No,No,,,,,,,,,,,,,
Transfer Station,Sherman County Transfer Station,Private,"Off Welk Rd, Near Biggs Junction",Biggs,OR,97823,Sherman,541-386-2272,https://pilotflyingj.com/stores/195,24 hours,24 hours,24 hours,24 hours,24 hours,24 hours,24 hours,Yes,No,No,No,No,No,No,No,No,No,No,No,No,No,No,No,No,No,No,,,,,,,,,,,,,
Waste Tire Facility,Oregon Raceway Park,Private,93811 Blagg Lane,Grass Valley,OR,97029,Sherman,503-292-5410,http://oregonraceway.com/,,,,,,,,No,No,No,No,No,No,No,No,No,No,No,No,No,No,No,No,No,No,Yes,,,,,,,,,,,,,
Compost Facility,Port of Tillamook Bay Manure Digester Hangar Pad A,Government,6018 Hangar A Rd,Tillamook,OR,97141,Tillamook,503-842-2413,,,,,,,,,No,No,No,Yes,No,No,No,No,No,No,No,No,No,No,No,No,No,No,No,,,,,,,,,,,,,
Compost Facility,"Dairy Compost, Inc.",Private,6020 Hanger Rd,Tillamook,OR,97141,Tillamook,503-801-3191,,,,,,,,,No,No,No,Yes,No,No,No,No,No,No,No,No,No,No,No,No,No,No,No,,,,,,,,,,,,,
Landfill,POTB Wood Waste Landfill,Government,4000 Blimp Blvd,Tillamook,OR,97141,Tillamook,503-842-2413,,,,,,,,,,,,,,,,,,,,,,,,,,,,,,,,,,,,,,,,
Transfer Station,Don Averill Waste Transfer Station,Private,6440 Blimp Rd,Tillamook,OR,97141,Tillamook,,http://www.co.tillamook.or.us/gov/SolidWaste/TransferStations.htm,No,8:00AM-4:00PM,8:00AM-4:00PM,8:00AM-4:00PM,8:00AM-4:00PM,8:00AM-4:00PM,8:00AM-4:00PM,,,,,,,,,,,,,,,,,,,,,,,,,,,,,,,,
Transfer Station,Pacific City Transfer Station,Government,S Brooten Rd,Pacific City,OR,97135,Tillamook,503-815-3975,http://www.co.tillamook.or.us/gov/SolidWaste/TransferStations.htm,1:00-4:00PM,9:00AM-4:00PM,No,No,Closed,9:00AM-4:00PM,9:00AM-4:00PM,Yes,No,No,No,No,No,No,No,No,No,No,No,No,No,No,No,No,No,No,,,,,,,,,,,,,
Transfer Station,Manzanita Transfer Station,Government,34995 Necarney City Road,Manzanita,OR,97130,Tillamook,503-815-3975,http://www.co.tillamook.or.us/gov/SolidWaste/TransferStations.htm,10:00AM-4:00PM,No,No,No,10:00AM-4:00PM,10:00AM-4:00PM,10:00AM-4:00PM,Yes,No,No,Yes,Yes,Yes,Yes,Yes,Yes,Yes,Yes,Yes,Yes,No,No,No,No,No,No,,,,,,,,,,,,,
Transfer Station,Tillamook Transfer Station,Government,1315 Eckloff Rd,Tillamook,OR,97141,Tillamook,503-815-3975,http://www.co.tillamook.or.us/gov/SolidWaste/TransferStations.htm,No,8:00AM-4:00PM,8:00AM-4:00PM,8:00AM-4:00PM,8:00AM-4:00PM,8:00AM-4:00PM,8:00AM-4:00PM,,,,,,,,,,,,,,,,,,,,,,,,,,,,,,,,
Waste Tire Facility,"Don G. Averill Recycling, Inc.",Private,1315 Eckloff Rd,Tillamook,OR,97141,Tillamook,503-842-5189,,,,,,,,,No,No,No,No,No,No,No,No,No,No,No,No,No,No,No,No,No,No,Yes,,,,,,,,,,,,,
Waste Tire Facility,"Don G. Averill Trucking, Inc.",Private,1500 Main Ave N,Tillamook,OR,97141,Tillamook,503-842-5186,,,,,,,,,No,No,No,No,No,No,No,No,No,No,No,No,No,No,No,No,No,No,Yes,,,,,,,,,,,,,
Compost Facility,Pendleton Transfer Station Compost Facility,Private,5500 Nw Rieth Rd,Pendleton,OR,97801,Umatilla,541-276-1271,http://www.pendletonsanitaryservice.com/,,,,,,,,Yes,No,No,Yes,Yes,Yes,No,No,No,No,No,No,No,Yes,Yes,No,No,No,Yes,,,,,,,,,,,,,
Compost Facility,Quality Compost Composting Facility,Private,51856 Seven Hills Rd,Milton-Freewater,OR,97862,Umatilla,509-956-6275,,,,,,,,,No,No,No,Yes,No,No,No,No,No,No,No,No,No,No,No,No,No,No,No,,,,,,,,,,,,,
Landfill,Humbert Refuse Landfill,Private,Gerking Flat Rd,Athena,OR,97813,Umatilla,541-938-4188,,,,,,,,,,,,,,,,,,,,,,,,,,,,,,,,,,,,,,,,
Landfill,Milton-Freewater Sanitary Landfill,Government, ,Milton-Freewater,OR,97862,Umatilla,541-938-8272,,,,,,,,,Yes,No,Yes,Yes,Yes,Yes,No,No,No,No,No,No,No,No,No,No,No,No,Yes,,,,,,,,,,,,,
Landfill,"Pilot Rock Sawmill Landfill (Kinzua Resources, LLC)",Private,One-Half Mile West Of Pilot Rock,Pilot Rock,OR,97850,Umatilla,541-953-7866,,,,,,,,,,,,,,,,,,,,,,,,,,,,,,,,,,,,,,,,
Transfer Station,Pendleton Transfer Station,Private,Reith Road,Pendleton,OR,97801,Umatilla,541-276-1271,http://www.pendletonsanitaryservice.com/,,,,,,,,Yes,No,No,Yes,Yes,Yes,No,No,No,No,No,No,No,Yes,Yes,No,No,No,Yes,,,,,,,,,,,,,
Transfer Station,Sanitary Disposal Transfer Station,Private,Tax Lots 101 And 107,Hermiston,OR,97838,Umatilla,541-567-8842,https://hermiston.or.us/solidwaste_home,9:00AM-5:00PM,8:00AM-4:30PM,8:00AM-4:30PM,8:00AM-4:30PM,8:00AM-4:30PM,8:00AM-4:30PM,9:00AM-5:00PM,Yes,No,No,Yes,Yes,Yes,No,No,No,No,No,No,No,No,No,No,No,No,Yes,,,,,,,,,,,,,
Compost Facility,Waste Pro Compost Facility,Private,3412 Highway 30,La Grande,OR,97850,Union,541-963-5459,http://www.waste-pro.com/,No,9:00AM-4:30PM,9:00AM-4:30PM,No,9:00AM-4:30PM,9:00AM-4:30PM,9:00AM-4:30PM,No,No,No,Yes,No,No,No,No,No,No,No,No,No,No,No,No,No,No,No,,,,,,,,,,,,,
Transfer Station,Elgin Transfer Station,Government,Hemlock Road ,Elgin,OR,97827,Union,541-437-2253,,,,,,,,,Yes,No,No,Yes,Yes,Yes,No,No,No,No,No,No,No,No,No,No,No,No,No,,,,,,,,,,,,,
Transfer Station,Waste Pro Recovery Transfer Station,Private,Highway 30,La Grande,OR,97850,Union,541-963-5459,http://www.waste-pro.com/,No,9:00AM-4:30PM,9:00AM-4:30PM,No,9:00AM-4:30PM,9:00AM-4:30PM,9:00AM-4:30PM,,,,,,,,,,,,,,,,,,,,,,,,,,,,,,,,
Landfill,Ant Flat Landfill,Government,"Sec 25, T1S, R44E",Enterprise,OR,97828,Wallowa,541-426-4543,,,,,,,,,Yes,Yes,No,Yes,Yes,Yes,No,No,No,No,No,No,No,No,No,No,No,No,No,,,,,,,,,,,,,
Transfer Station,Joseph Transfer Station,Private,Airport Rd,Joseph,OR,97846,Wallowa,541-426-3492,,,,,,,,,Yes,No,No,Yes,Yes,Yes,No,No,No,No,No,No,No,No,No,No,No,No,No,,,,,,,,,,,,,
Transfer Station,Lostine Transfer Station,Private,Caudle Lane,Lostine,OR,97857,Wallowa,541-426-3492,,,,,,,,,Yes,No,No,No,No,No,No,No,No,No,No,No,No,No,No,No,No,No,No,,,,,,,,,,,,,
Transfer Station,Wallowa Transfer Station,Private, Hwy 82,Wallowa,OR,97885,Wallowa,541-426-3492,,,,,,,,,Yes,No,No,Yes,Yes,Yes,No,No,No,No,No,No,No,No,No,No,No,No,No,,,,,,,,,,,,,
Landfill,Wasco County Landfill,Government,2550 Steele Road,The Dalles,OR,97058,Wasco,541-296-4082,http://www.wascocountylandfill.com/,No,8:00AM-2:30PM,8:00AM-2:30PM,8:00AM-2:30PM,8:00AM-2:30PM,8:00AM-2:30PM,No,,,,,,,,,,,,,,,,,,,,,,,,,,,,,,,,
Transfer Station,Antelope Disposal Sites,Government,"Sec 30, T7S, R17E",Antelope,OR,97001,Wasco,541-489-3352,,,,,,,,,,,,,,,,,,,,,,,,,,,,,,,,,,,,,,,,
Transfer Station,Shaniko Transfer Station,Government,"2Nd And ""F"" Streets",Shaniko,OR,97057,Wasco,541-489-3226,,,,,,,,,Yes,No,No,No,No,No,No,No,No,No,No,No,No,No,No,No,No,No,No,,,,,,,,,,,,,
Transfer Station,The Dalles Transfer Station + Tri-County HHHW Collection Facility,Private,1317 W 1St St,The Dalles,OR,97058,Wasco,541-298-5149,http://www.tricountyrecycle.com/maging-my-materials/recycle/recycling-home/recycle-home-wasco-county,No,9:00AM-5:00PM,9:00AM-5:00PM,9:00AM-5:00PM,9:00AM-5:00PM,9:00AM-5:00PM,9:00AM-5:00PM,Yes,No,No,Yes,Yes,Yes,No,No,No,No,No,No,No,No,No,No,No,No,No,,,,,,,,,,,,,
Transfer Station,Wasco County Landfill Barge Unloading Facility,Government,2649 River Rd,The Dalles,OR,97058,Wasco,5419651339,,,,,,,,,,,,,,,,,,,,,,,,,,,,,,,,,,,,,,,,
Waste Tire Facility,Mosier Tire/Soil Berm,Government,Po Box 456,Mosier,OR,97040,Wasco,541-478-3505,,,,,,,,,No,No,No,No,No,No,No,No,No,No,No,No,No,No,No,No,No,No,Yes,,,,,,,,,,,,,
Compost Facility,Grimm's Fuel Co.,Private,18850 Sw Cipole Rd,Tualatin,OR,97062,Washington,503-636-3623,http://www.grimmsfuel.com/,9:00AM-5:00PM,7:00AM-5:00PM,7:00AM-5:00PM,7:00AM-5:00PM,7:00AM-5:00PM,7:00AM-5:00PM,7:00AM-5:00PM,No,No,No,Yes,No,No,No,No,No,No,No,No,No,No,No,No,No,No,No,,,,,,,,,,,,,
Compost Facility,Recology Organics - North Plains,Private,9570 Nw 307Th Ave,North Plains,OR,97133,Washington,503-283-2015,https://www.recology.com/recology-portland/recology-organics-northplains/,No,8:00AM-4:00PM,8:00AM-4:00PM,8:00AM-4:00PM,8:00AM-4:00PM,8:00AM-4:00PM,No,No,No,No,Yes,No,No,No,No,No,No,No,No,No,No,No,No,No,No,No,,,,,,,,,,,,,
Compost Facility,SORT Bioenergy,Private,10295 Sw Ridder Rd,Wilsonville,OR,97070,Washington,208-859-8257,,,,,,,,,No,No,No,Yes,No,No,No,No,No,No,No,No,No,No,No,No,No,No,No,,,,,,,,,,,,,
Compost Facility,N2K Berry Farm,Private,29000 Sw Farmington Rd,Hillsboro,OR,97123,Washington,971-404-6124,,,,,,,,,No,No,No,Yes,No,No,No,No,No,No,No,No,No,No,No,No,No,No,No,,,,,,,,,,,,,
Compost Facility,New Earth Farm,Private,11000 Nw Jackson Quarry Rd,Hillsboro,OR,97124,Washington,503-913-2641,http://www.newearthfarm.net/,No,No,11:00AM-7:00PM,11:00AM-7:00PM,11:00AM-7:00PM,11:00AM-7:00PM,No,No,No,No,Yes,No,No,No,No,No,No,No,No,No,No,No,No,No,No,No,,,,,,,,,,,,,
Compost Facility,"Northwest Environmental And Recycling, Inc.",Private,1045 N 4Th Ave,Cornelius,OR,97113,Washington,503-638-1011,,,,,,,,,No,No,No,Yes,No,No,No,No,No,No,No,No,No,No,No,No,No,No,No,,,,,,,,,,,,,
Landfill,Hillsboro Landfill,Private,3205 Se Minter Bridge Road,Hillsboro,OR,97123,Washington,503-331-2239,https://www.wm.com/,No,6:00AM-4:00PM,6:00AM-4:00PM,6:00AM-4:00PM,6:00AM-4:00PM,6:00AM-4:00PM,8:00AM-12:00PM,Yes,No,No,Yes,Yes,Yes,No,No,No,No,No,No,No,Yes,Yes,No,No,No,Yes,,,,,,,,,,,,,
Recycling Center,Aloha Garbage Co.,Private,3755 Sw 205Th Place,Aloha,OR,97007,Washington,503-649-3727,,,,,,,,,No,No,No,No,No,No,Yes,Yes,Yes,Yes,Yes,Yes,Yes,,,,,No,No,,,,,,,,,,,,,
Recycling Center,Tualatin Valley Waste Recovery,Private,3215 Se Minter Bridge Rd,Hillsboro,OR,97123,Washington,503-331-2221,https://www.wm.com/,No,6:00AM-4:00PM,6:00AM-4:00PM,6:00AM-4:00PM,6:00AM-4:00PM,6:00AM-4:00PM,8:00AM-12:00PM,No,No,No,No,No,No,Yes,Yes,Yes,Yes,Yes,Yes,Yes,,,,,No,No,,,,,,,,,,,,,
Transfer Station,Forest Grove Transfer Station,Private,1525 B St,Forest Grove,OR,97116,Washington,503-493-7858,https://www.wm.com/,No,9:00AM-5:00PM,9:00AM-5:00PM,9:00AM-5:00PM,9:00AM-5:00PM,9:00AM-5:00PM,9:00AM-5:00PM,Yes,No,Yes,Yes,Yes,Yes,Yes,Yes,Yes,Yes,Yes,Yes,Yes,No,No,No,No,No,Yes,,,,,,,,,,,,,
Transfer Station,Hillsboro Garbage and Disposal,Private,4945 Sw Minter Bridge Road,Hillsboro,OR,97045,Washington,503-648-4219,http://www.hillsborogarbage.com/,No,8:00AM-4:30PM,8:00AM-4:30PM,8:00AM-4:30PM,8:00AM-4:30PM,8:00AM-4:30PM,No,,,,,,,,,,,,,,,,,,,,,,,,,,,,,,,,
Transfer Station,Northwest Landscape Services,Private,1800 Ne Cornelius Pass Road,Hillsboro,OR,97124,Washington,425-481-0919,http://www.nlswa.com/,,,,,,,,,,,,,,,,,,,,,,,,,,,,,,,,,,,,,,,
Transfer Station,Pride Recycling Company,Private,13910 Sw Tualatin Sherwood Rd,Sherwood,OR,97140,Washington,503-625-6177,http://prideshred.com/,No,8:00AM-4:30PM,8:00AM-4:30PM,8:00AM-4:30PM,8:00AM-4:30PM,8:00AM-4:30PM,No,,,,,,,,,,,,,,,,,,,,,,,,,,,,,,,,
Transfer Station,S&H Recycling,Private,1748 Ne 25Th Ave,Hillsboro,OR,97124,Washington,503-638-1011,http://www.shbark.com/,No,7:00AM-4:00PM,7:00AM-4:00PM,7:00AM-4:00PM,7:00AM-4:00PM,7:00AM-4:00PM,No,,,,,,,,,,,,,,,,,,,,,,,,,,,,,,,,
Transfer Station,WRI Willamette Resources Inc TS/MRF,Private,10295 Sw Ridder Rd,Wilsonville,OR,97070,Washington,503-570-0626,,,,,,,,,,,,,,,,,,,,,,,,,,,,,,,,,,,,,,,,
Waste Tire Facility,Carothers Tire,Private,235 Sw Oak St,Hillsboro,OR,97123,Washington,503-648-7099,https://carotherstire.com/,No,8:30AM-6:00PM,8:30AM-6:00PM,8:30AM-6:00PM,8:30AM-6:00PM,8:30AM-6:00PM,8:30AM-6:00PM,No,No,No,No,No,No,No,No,No,No,No,No,No,No,No,No,No,No,Yes,,,,,,,,,,,,,
Transfer Station,Fossil Solid Waste Transfer Station And Recycling Station,Government,"17487 Black Butte, County Rd 19",Fossil,OR,97830,Wheeler,541-763-3460,,,,,,,,,,,,,,,,,,,,,,,,,,,,,,,,,,,,,,,,
Transfer Station,Mitchell Transfer Station And Recycling Station,Government,Hwy 207,Mitchell,OR,97750,Wheeler,541-763-4207,,,,,,,,,,,,,,,,,,,,,,,,,,,,,,,,,,,,,,,,
Transfer Station,Spray Solid Waste Transfer Station And Recycling Station,Government, 40337 Kahler Basin Rd,Spray,OR,97874,Wheeler,541-763-4207,,,,,,,,,,,,,,,,,,,,,,,,,,,,,,,,,,,,,,,,
Compost Facility,Ecology Composting,Private,14425 Se Wallace Rd,Dayton,OR,97114,Yamhill,503-969-9545,,,,,,,,,No,No,No,Yes,No,No,No,No,No,No,No,No,No,No,No,No,No,No,No,,,,,,,,,,,,,
Compost Facility,Recology NW Greenlands McMinnville,Private,Riverbend Rd,Mcminnville,OR,97128,Yamhill,503-474-4856,http://www.recologyorganics.com/,No,8:00AM-4:00PM,8:00AM-4:00PM,8:00AM-4:00PM,8:00AM-4:00PM,8:00AM-4:00PM,9:00AM-4:00PM,No,No,No,Yes,No,No,No,No,No,No,No,No,No,No,No,No,No,No,No,,,,,,,,,,,,,
Compost Facility,Alderman Farm,Private,14301 Se Wallace Rd,Dayton,OR,97114,Yamhill,503-868-7971,,,,,,,,,No,No,No,Yes,No,No,No,No,No,No,No,No,No,No,No,No,No,No,No,,,,,,,,,,,,,
Compost Facility,Gordon Farm,Private,13205 Webfoot Rd,Dayton,OR,97114,Yamhill,503-868-7971,,,,,,,,,No,No,No,Yes,No,No,No,No,No,No,No,No,No,No,No,No,No,No,No,,,,,,,,,,,,,
Compost Facility,"Yamhill County Mushrooms, Inc.",Private,7246 Lilac Hill Rd,Yamhill,OR,97148,Yamhill,503-662-4131,,,,,,,,,No,No,No,Yes,No,No,No,No,No,No,No,No,No,No,No,No,No,No,No,,,,,,,,,,,,,
Landfill,Riverbend Landfill,Private,13469 Sw Highway 18,Mcminnville,OR,97128,Yamhill,971-261-4006,https://www.wm.com/,No,6:00AM-4:30PM,6:00AM-4:30PM,6:00AM-4:30PM,6:00AM-4:30PM,6:00AM-4:30PM,7:00AM-3:00PM,Yes,No,No,No,Yes,Yes,Yes,Yes,Yes,Yes,Yes,Yes,Yes,Yes,Yes,No,No,No,Yes,,,,,,,,,,,,,
Landfill,Buck Hollow Landfill,Private,Ft. Hill Rd. Between Ft. Hill & Willamin,Fort Hill,OR,97338,Yamhill,503-876-2322,,,,,,,,,,,,,,,,,,,,,,,,,,,,,,,,,,,,,,,,
Recycling Center,Valley Recovery Zone,Private,2200 Ne Orchard Ave,Mcminnville,OR,97128,Yamhill,503-434-5549,https://www.recology.com/recology-western-oregon/amity-lafayette-mcminnville/organics-mcminnville/,No,8:00AM-4:00PM,8:00AM-4:00PM,8:00AM-4:00PM,8:00AM-4:00PM,8:00AM-4:00PM,9:00AM-4:00PM,No,No,No,No,No,No,Yes,Yes,Yes,Yes,Yes,Yes,Yes,,,,,No,No,,,,,,,,,,,,,
Transfer Station,Newberg Transfer And Recycling Center,Private,2904 Wynooski Rd.,Newberg,OR,97132,Yamhill,503-462-0508,https://www.wm.com/,No,8:00AM-5:00PM,8:00AM-5:00PM,8:00AM-5:00PM,8:00AM-5:00PM,8:00AM-5:00PM,8:00AM-5:00PM,,,,,,,,,,,,,,,,,,,,,,,,,,,,,,,,
